{"type":"FeatureCollection","features":[{"type":"Feature","properties":{"__OBJECTID":1,"id":1,"id_0":1,"soort":"bik","layerid":"kniklijnen","objectid":1,"gebruiker":"postgres","gewijzigd":1614952042118,"layername":"Binnenkruinlijn","layercolor":"#0E3E5D","layerstyle":"id,id,2,uit","shape__len":31419.3191961,"shape_leng":31419.3190612},"geometry":{"type":"LineString","coordinates":[[5.094817159,51.996854559],[5.094529919,51.996829535],[5.094241527,51.996803484],[5.093950531,51.996780525],[5.093661651,51.9967579],[5.093084873,51.996717116],[5.092796903,51.996692263],[5.092514501,51.996662904],[5.091812622,51.996518613],[5.091061832,51.996318231],[5.090786111,51.99626028],[5.090529167,51.996168311],[5.090114597,51.996153638],[5.089892862,51.996185778],[5.089711689,51.996276543],[5.089483316,51.996347242],[5.089240533,51.996365701],[5.088992849,51.996335148],[5.088727823,51.99626064],[5.088468421,51.996173004],[5.088183834,51.996120247],[5.087909448,51.996059773],[5.087635173,51.995999338],[5.087369143,51.995933199],[5.087139932,51.995850327],[5.086976594,51.995740733],[5.086906758,51.9956031],[5.086943647,51.995451459],[5.08703618,51.995284499],[5.087135771,51.99511659],[5.087247514,51.994927752],[5.087264701,51.99480916],[5.087169139,51.994697143],[5.086913181,51.994569361],[5.086694529,51.994447494],[5.086454272,51.994349448],[5.086230388,51.994234482],[5.086008298,51.99411903],[5.08578615,51.994002787],[5.085564037,51.993886544],[5.08535566,51.993755968],[5.085125201,51.993645256],[5.084883636,51.9935351],[5.084616122,51.993443139],[5.08434627,51.993367059],[5.084063691,51.993271463],[5.083842485,51.993175622],[5.083521721,51.993203372],[5.083281946,51.993114253],[5.083043237,51.993011532],[5.082801696,51.992900654],[5.082548507,51.99281186],[5.082303197,51.992721452],[5.082010611,51.992670888],[5.080367101,51.991921175],[5.080073769,51.991874511],[5.079814832,51.991782866],[5.079557026,51.991695644],[5.079291445,51.991615698],[5.07901875,51.99154487],[5.078732573,51.991496736],[5.078191929,51.991356479],[5.077917325,51.991302424],[5.077635856,51.991260766],[5.077370215,51.99118339],[5.077099806,51.991122402],[5.076835588,51.991057185],[5.076580576,51.990979803],[5.076329081,51.990894422],[5.076082764,51.990803881],[5.075840962,51.990707882],[5.075593253,51.990608295],[5.07534494,51.990514226],[5.075096283,51.99042042],[5.074847366,51.990326899],[5.074598169,51.990233659],[5.074358863,51.990137444],[5.074119315,51.990036806],[5.073881822,51.989934354],[5.073628395,51.989844704],[5.07339102,51.989730461],[5.073144811,51.989639059],[5.072899736,51.989542517],[5.072655212,51.989445396],[5.072411316,51.989347711],[5.072183994,51.989234457],[5.07195642,51.989142484],[5.071689571,51.989049504],[5.071456017,51.988944793],[5.071222268,51.988846298],[5.071023463,51.98870716],[5.070817324,51.988590349],[5.070612882,51.98846554],[5.070414776,51.988336741],[5.07022246,51.988204611],[5.070035767,51.98806888],[5.069855364,51.987930149],[5.069677508,51.987788185],[5.069499653,51.987646397],[5.069323134,51.987503994],[5.069147868,51.987360933],[5.068974094,51.987217363],[5.068800925,51.987072886],[5.068630403,51.986928547],[5.068440077,51.986792896],[5.068277353,51.986644895],[5.068112261,51.986495279],[5.06795497,51.986347185],[5.067847399,51.986175417],[5.067700169,51.986036896],[5.067575245,51.985878302],[5.067512781,51.985703262],[5.067425934,51.985526974],[5.067318534,51.985358459],[5.067179071,51.985198374],[5.067094255,51.985035147],[5.067028921,51.984871219],[5.06701136,51.984691782],[5.066990732,51.984511645],[5.066990536,51.984329949],[5.066945033,51.984156247],[5.06694653,51.983979454],[5.066961463,51.983802314],[5.066986848,51.983621769],[5.066989176,51.983437624],[5.066959949,51.98325278],[5.066903834,51.983073359],[5.066844559,51.9828971],[5.066784049,51.98272104],[5.066722324,51.98254514],[5.066659358,51.982369362],[5.066595172,51.98219381],[5.066529948,51.982018585],[5.06646684,51.981843743],[5.066406894,51.981668397],[5.066350171,51.981492754],[5.06629733,51.98131699],[5.066247944,51.98114051],[5.066205048,51.980952001],[5.066104273,51.980779275],[5.065962632,51.980617355],[5.065874088,51.980448752],[5.06574435,51.980288673],[5.065649277,51.980120276],[5.06555691,51.979949797],[5.065464544,51.979779322],[5.065369825,51.97960699],[5.065293371,51.979432615],[5.065189694,51.97926461],[5.065044738,51.979098804],[5.064872954,51.978941996],[5.064654555,51.978807426],[5.06443297,51.978685614],[5.06420774,51.978577892],[5.063983156,51.978474566],[5.063813931,51.978332006],[5.063603563,51.978206472],[5.063403446,51.97806882],[5.063128721,51.977970338],[5.062820093,51.977923402],[5.062525703,51.977929286],[5.062235374,51.977940986],[5.061945918,51.977950484],[5.061656648,51.977957283],[5.061366741,51.977961368],[5.061077317,51.97794453],[5.060788643,51.977959433],[5.060499712,51.977952081],[5.060211546,51.977940463],[5.05992356,51.977924572],[5.059636575,51.977904426],[5.059356416,51.977875318],[5.059077028,51.977835142],[5.058800684,51.977786763],[5.058529048,51.97773038],[5.058261574,51.977665954],[5.058002238,51.977592941],[5.057759714,51.977494912],[5.057502149,51.977413429],[5.057255528,51.977322685],[5.057008231,51.977230537],[5.056763523,51.977135556],[5.056505401,51.97705276],[5.05627789,51.976939254],[5.056038649,51.976839231],[5.055795139,51.976735307],[5.055548843,51.976639522],[5.055296363,51.976543176],[5.055033629,51.976457526],[5.054762613,51.976381182],[5.054485556,51.976314891],[5.054221434,51.976252011],[5.053943631,51.976195392],[5.053425195,51.97604041],[5.053181334,51.975940624],[5.052934096,51.975852345],[5.052668611,51.975776594],[5.052424799,51.97568401],[5.052198709,51.975569365],[5.051961278,51.975475073],[5.051737725,51.975361269],[5.051513227,51.975246591],[5.051290196,51.975132297],[5.051071446,51.97501595],[5.050855886,51.974895914],[5.050640936,51.974774709],[5.050444516,51.974640527],[5.050210458,51.97453273],[5.049995644,51.97441143],[5.049780826,51.974290127],[5.049564808,51.97416927],[5.049137918,51.973925717],[5.048955122,51.973787921],[5.048729791,51.973672716],[5.048553876,51.973536277],[5.048347992,51.973407942],[5.04818154,51.973257762],[5.048028209,51.97311528],[5.047850399,51.972972091],[5.047720316,51.972809015],[5.047437175,51.972503335],[5.047321925,51.972343756],[5.047220416,51.97217528],[5.047158242,51.972000998],[5.047036908,51.971835438],[5.046969358,51.971659663],[5.046804752,51.971313453],[5.046639457,51.971151775],[5.04650192,51.970988663],[5.046340611,51.970831349],[5.046158722,51.970691015],[5.045976903,51.970550663],[5.045791054,51.970411115],[5.045390651,51.970142781],[5.045183296,51.970016829],[5.04499108,51.969888426],[5.044801459,51.969751608],[5.044634176,51.969603655],[5.044486268,51.969458207],[5.044311469,51.969310529],[5.044138186,51.969166107],[5.043984258,51.96902196],[5.043859756,51.968860685],[5.043671153,51.968739853],[5.043564284,51.968571684],[5.043513445,51.968393774],[5.043430388,51.968219805],[5.043319774,51.968045732],[5.04318738,51.967884209],[5.042905623,51.967567901],[5.042791762,51.96740149],[5.042653219,51.967243902],[5.042485386,51.96709401],[5.042341018,51.966937924],[5.042221921,51.966772921],[5.042077555,51.966616834],[5.041760534,51.966312343],[5.041624658,51.966150815],[5.041461491,51.966006041],[5.041337158,51.965843001],[5.041160586,51.965697862],[5.040997522,51.965545367],[5.040866878,51.965388413],[5.040665419,51.965246657],[5.040496229,51.965093921],[5.040281456,51.964973006],[5.040089488,51.9648379],[5.039890232,51.964702119],[5.039647651,51.964584062],[5.039354085,51.964511698],[5.039040123,51.964496416],[5.038742499,51.964515938],[5.038452943,51.964539196],[5.038186257,51.964555879],[5.038060757,51.96463789],[5.038006016,51.96477078],[5.037859112,51.964911466],[5.037685502,51.965024568],[5.037430118,51.965082848],[5.037143964,51.965112652],[5.036852806,51.965146735],[5.036569679,51.965195928],[5.036282715,51.965237512],[5.036018689,51.965313566],[5.03574272,51.965372431],[5.035469008,51.965430713],[5.035192214,51.965488852],[5.034917107,51.965549893],[5.034645301,51.965612032],[5.034362964,51.965670073],[5.034112062,51.965763797],[5.033847627,51.965811402],[5.033590419,51.965838008],[5.033324079,51.965777856],[5.033106397,51.965724791],[5.032878673,51.965669279],[5.032718729,51.965755939],[5.032453537,51.965858617],[5.032210297,51.965891239],[5.031926751,51.965939133],[5.031663145,51.965941848],[5.031385224,51.965906532],[5.031091088,51.965903761],[5.030806713,51.96588402],[5.030502674,51.96587068],[5.030219773,51.965853724],[5.029644475,51.965809025],[5.029352899,51.965789619],[5.029067047,51.965769838],[5.028486813,51.965727806],[5.028197536,51.965708189],[5.027623615,51.965664141],[5.027339015,51.965621269],[5.027039385,51.96561767],[5.026750361,51.965601803],[5.026454854,51.96558995],[5.026167704,51.965581514],[5.025873806,51.965570147],[5.025585281,51.965560817],[5.0252916,51.965552089],[5.024706861,51.965544946],[5.02441454,51.965544119],[5.024122343,51.965545276],[5.023825431,51.96555232],[5.023534381,51.965564583],[5.023242101,51.965579679],[5.022956042,51.965593309],[5.022665158,51.96558461],[5.02238104,51.965609448],[5.022088664,51.965611779],[5.021796746,51.965614086],[5.021479633,51.965626185],[5.02113746,51.965754139],[5.02076287,51.966002259],[5.020564739,51.966132008],[5.020362207,51.966261095],[5.020163438,51.966390366],[5.019959174,51.966514976],[5.019744501,51.966641589],[5.019540798,51.96676379],[5.019324432,51.966891827],[5.019118764,51.967010074],[5.018909039,51.967132412],[5.018687446,51.967250675],[5.018468592,51.967364004],[5.018247905,51.967467193],[5.018009329,51.967567104],[5.017758024,51.967654043],[5.017511344,51.967742149],[5.017250947,51.967827746],[5.01699225,51.967913009],[5.016742548,51.967997553],[5.016482854,51.968086178],[5.016192564,51.96815711],[5.015920129,51.968273095],[5.015672547,51.968629813],[5.015542345,51.968795689],[5.015411715,51.968951741],[5.015272798,51.969117792],[5.01515,51.969277388],[5.015021461,51.96943544],[5.014893207,51.96959791],[5.014765578,51.969759224],[5.014630988,51.969908427],[5.014498932,51.970080728],[5.014381834,51.970238805],[5.014224055,51.970407673],[5.014113149,51.970556083],[5.013974421,51.970719378],[5.01382071,51.970869677],[5.013716254,51.971042369],[5.013611553,51.97120641],[5.013482993,51.971373865],[5.013367253,51.971535773],[5.01299885,51.972023542],[5.012870184,51.972185249],[5.012739721,51.972342836],[5.012610732,51.972507397],[5.012471904,51.972656393],[5.012313929,51.972803686],[5.012146216,51.972955544],[5.011986523,51.973099878],[5.011825539,51.973243865],[5.011644527,51.973375693],[5.011443774,51.973498098],[5.011231014,51.973621885],[5.011022968,51.973708892],[5.010774288,51.973746863],[5.010504992,51.973741589],[5.010227257,51.973724229],[5.009918872,51.973711151],[5.009618537,51.973717504],[5.00932223,51.973742303],[5.009032708,51.973769832],[5.008746599,51.973801589],[5.008459267,51.973832177],[5.008172227,51.97386198],[5.00789206,51.973890309],[5.00761031,51.973914739],[5.00732069,51.973935178],[5.007035637,51.973940782],[5.006455119,51.973937452],[5.006163129,51.97393717],[5.005579974,51.97393848],[5.005285361,51.973945488],[5.004991976,51.973955624],[5.00470162,51.973968084],[5.00441325,51.973978902],[5.003825482,51.973999061],[5.003534611,51.974017053],[5.00324357,51.974040787],[5.002954527,51.974065531],[5.00267016,51.974088457],[5.00238446,51.97410676],[5.001814595,51.974118466],[5.001524953,51.974113813],[5.001237135,51.974105438],[5.000951454,51.974092359],[5.000668369,51.974070521],[5.000383765,51.974041242],[5.000103744,51.974006698],[4.999836509,51.973959588],[4.999339646,51.973805197],[4.999076476,51.973720216],[4.998810723,51.973637283],[4.998270644,51.973494476],[4.998006029,51.973426551],[4.997752097,51.973348524],[4.997504887,51.97326307],[4.997316402,51.97314375],[4.997153434,51.973032066],[4.997054115,51.97287671],[4.996966772,51.972707763],[4.996901745,51.97252781],[4.996754736,51.972362543],[4.996593775,51.972196716],[4.996441109,51.972066736],[4.996233166,51.971911021],[4.99604316,51.971767132],[4.995883713,51.971620191],[4.995691637,51.971467325],[4.995458073,51.971316724],[4.995254879,51.971216164],[4.995020888,51.971115037],[4.994762326,51.971022813],[4.99426283,51.970823545],[4.993758761,51.970650841],[4.993561598,51.970553414],[4.993396872,51.970418044],[4.993237498,51.970269168],[4.993082814,51.970116899],[4.992920509,51.969967168],[4.992749132,51.969818572],[4.992583415,51.969670618],[4.992243743,51.969382088],[4.992108472,51.96923566],[4.992025817,51.969073725],[4.991946195,51.968904133],[4.991821612,51.968726727],[4.991684545,51.968564043],[4.991493025,51.968408818],[4.991299164,51.968274055],[4.991092398,51.968141369],[4.990875397,51.968012933],[4.990653868,51.967897195],[4.990432366,51.967781981],[4.990205867,51.967663568],[4.990023048,51.967523443],[4.989750925,51.967431943],[4.989533302,51.967327907],[4.989310031,51.967209833],[4.989082867,51.967095361],[4.988877051,51.966967603],[4.988651241,51.966868353],[4.988497015,51.966735137],[4.988386324,51.966582683],[4.988280187,51.966415301],[4.988175803,51.966245714],[4.988124489,51.966067816],[4.987962086,51.965912275],[4.987848647,51.965744845],[4.987679928,51.965579651],[4.987297933,51.965301625],[4.987116024,51.965166355],[4.986942616,51.965023076],[4.986780272,51.964880866],[4.986490636,51.964577069],[4.986360539,51.964417597],[4.986307784,51.964230155],[4.986086679,51.964057951],[4.985587558,51.963829794],[4.985359982,51.963722223],[4.985118806,51.963641428],[4.984841044,51.963576308],[4.9846236,51.963461425],[4.984408777,51.963341254],[4.984194398,51.963219769],[4.983762053,51.962978358],[4.983335012,51.962732088],[4.983123136,51.962612547],[4.982909305,51.962490679],[4.982696355,51.962368667],[4.982486819,51.962245938],[4.982114345,51.961968935],[4.981865454,51.961867902],[4.981658446,51.96174227],[4.981486441,51.961589159],[4.981291686,51.961453462],[4.981041179,51.961325957],[4.980611862,51.961109066],[4.980345443,51.961020753],[4.98011782,51.960907693],[4.979886743,51.960796033],[4.979655226,51.960687256],[4.97942587,51.960577731],[4.978961623,51.960359981],[4.978726913,51.960250858],[4.978485403,51.960146326],[4.978246102,51.960045054],[4.978015581,51.959935361],[4.977794566,51.95983056],[4.977609526,51.959708479],[4.977451109,51.959570699],[4.977164477,51.959261151],[4.976893321,51.958944183],[4.976754202,51.958786061],[4.976614021,51.958626445],[4.976474948,51.958471811],[4.97629276,51.958249473],[4.976126002,51.958043495],[4.975925404,51.957909515],[4.975875033,51.957753152],[4.976012662,51.95762165],[4.976210816,51.957463218],[4.976369054,51.957209886],[4.976414367,51.956990064],[4.976228004,51.956849695],[4.975932882,51.956796483],[4.975611551,51.956794153],[4.975322447,51.956807712],[4.975021401,51.956828613],[4.974729999,51.956874832],[4.974444918,51.956888321],[4.97386011,51.956921986],[4.973564513,51.956924467],[4.973282356,51.956961657],[4.972982611,51.956983997],[4.972710049,51.957015847],[4.972128476,51.957036849],[4.971838929,51.957054409],[4.971548728,51.957072996],[4.97125723,51.957072693],[4.970967695,51.957090034],[4.970678958,51.957106201],[4.970101358,51.957133121],[4.969231815,51.957146892],[4.968937079,51.957177242],[4.96834866,51.957229453],[4.96805724,51.957243405],[4.967768867,51.95727628],[4.96748634,51.957306601],[4.967205504,51.957358277],[4.966332034,51.957416103],[4.966064087,51.957501545],[4.965778598,51.957533125],[4.965486347,51.957570562],[4.965195739,51.957570865],[4.964239766,51.957714876],[4.963815754,51.957777561],[4.963441826,51.957835668],[4.963167585,51.957939003],[4.962735947,51.958189494],[4.962541264,51.958328652],[4.962310364,51.958455718],[4.962095181,51.958598959],[4.961956798,51.958741611],[4.961841751,51.958779693],[4.961552045,51.958797189],[4.961261508,51.958795215],[4.9609771,51.958755597],[4.960691512,51.958738792],[4.960399015,51.958714369],[4.960117586,51.958677573],[4.959823507,51.958657189],[4.959526464,51.958659492],[4.958927263,51.958652515],[4.958629459,51.958679929],[4.958339168,51.95871668],[4.958052671,51.958754789],[4.957764682,51.958805562],[4.957485515,51.958867499],[4.957208696,51.958945896],[4.95694835,51.959039394],[4.956700397,51.959143638],[4.956465299,51.959252446],[4.956241602,51.959361975],[4.956006816,51.959471728],[4.955776725,51.95958392],[4.955550541,51.959697644],[4.955322832,51.95981117],[4.955099472,51.959928396],[4.954878351,51.960045758],[4.954658393,51.960164701],[4.954441374,51.960285379],[4.954245837,51.960421677],[4.954016548,51.960532321],[4.953802024,51.960657136],[4.953593002,51.960784405],[4.953390054,51.960914289],[4.953143329,51.961015246],[4.952774772,51.961293718],[4.952570463,51.961418619],[4.952359431,51.961532121],[4.952129242,51.961636822],[4.951891673,51.961729899],[4.951640721,51.961816803],[4.951384731,51.961902627],[4.951131085,51.961981693],[4.950868241,51.962059547],[4.950602943,51.962137914],[4.950357299,51.962183564],[4.95009883,51.962199094],[4.949833695,51.962175628],[4.949556693,51.962126333],[4.949260933,51.962084177],[4.948937959,51.962060277],[4.948153655,51.962046012],[4.948011592,51.962090252],[4.947833196,51.962231422],[4.947627026,51.962240866],[4.947423165,51.962173091],[4.947352941,51.962053653],[4.94715712,51.961860354],[4.946944021,51.961739462],[4.946666909,51.961633927],[4.946405191,51.961557792],[4.94615277,51.961483438],[4.945819791,51.961361874],[4.945461787,51.961184451],[4.945267424,51.961046713],[4.945033481,51.960937799],[4.944795779,51.960818437],[4.944286608,51.960630075],[4.944024211,51.960546895],[4.94376661,51.960466635],[4.943502973,51.960383508],[4.943243296,51.960306482],[4.942984733,51.960225732],[4.942728569,51.960142797],[4.942481451,51.960054909],[4.942245139,51.959960303],[4.942012992,51.959856888],[4.941788326,51.959745929],[4.941576778,51.959629341],[4.941365038,51.959506949],[4.94117686,51.959371974],[4.940941144,51.959257026],[4.940525408,51.95901261],[4.940333591,51.958884967],[4.940184807,51.958740406],[4.940006324,51.958601783],[4.939882412,51.958448652],[4.939769582,51.958286441],[4.939662089,51.958119448],[4.939554535,51.957953778],[4.939334576,51.957618127],[4.939221642,51.957453881],[4.939104516,51.957286434],[4.938984951,51.957121785],[4.938874537,51.956961332],[4.938749057,51.956798399],[4.938637829,51.956630577],[4.938527942,51.956465327],[4.938415537,51.956299441],[4.938307431,51.9561351],[4.938194146,51.955965785],[4.938065164,51.955797933],[4.937959342,51.955639194],[4.937792453,51.955469455],[4.937609253,51.955329863],[4.937428054,51.955172982],[4.937225694,51.95504222],[4.936759598,51.954808171],[4.936540638,51.954698527],[4.936339892,51.954580133],[4.935992701,51.954310437],[4.935836331,51.954158843],[4.935669379,51.954009308],[4.935495926,51.953857324],[4.935288682,51.953719525],[4.935046938,51.953598626],[4.934783959,51.953504589],[4.934511062,51.953426988],[4.934252333,51.953354372],[4.934015594,51.953274722],[4.933824297,51.953155619],[4.933620583,51.953039879],[4.933429606,51.952903897],[4.93305879,51.95262601],[4.932717103,51.952346821],[4.932615902,51.952188717],[4.932554252,51.952031966],[4.932472474,51.951861278],[4.932463406,51.951686822],[4.932344705,51.95133378],[4.932276384,51.951150833],[4.93219169,51.950975612],[4.932113699,51.950804457],[4.93205507,51.95063376],[4.932027091,51.950452527],[4.931940603,51.950279953],[4.931887557,51.950101923],[4.931812165,51.9499235],[4.931717946,51.949747804],[4.931623708,51.949569561],[4.931450904,51.949412478],[4.931276868,51.949261113],[4.93076663,51.948946362],[4.930428519,51.948745014],[4.930174455,51.94864058],[4.929674223,51.948460864],[4.929438814,51.948366791],[4.929232791,51.948254738],[4.92904358,51.948125443],[4.92866425,51.947852301],[4.928472011,51.947716702],[4.928277894,51.947583521],[4.928081941,51.947447714],[4.927889568,51.947314307],[4.927695891,51.947180697],[4.927500411,51.947046695],[4.927328249,51.946901109],[4.927112622,51.946779327],[4.926917195,51.946646365],[4.926723415,51.94651206],[4.926529043,51.946378108],[4.926335683,51.946244285],[4.926144878,51.946109105],[4.925955446,51.945974745],[4.925770139,51.945837245],[4.925594927,51.945696564],[4.925252675,51.945408782],[4.925091143,51.94526192],[4.924952915,51.945103178],[4.924611262,51.944811058],[4.924442653,51.944662413],[4.924266424,51.944516816],[4.924093267,51.944371884],[4.923912275,51.944229689],[4.923746938,51.944078283],[4.923531962,51.943953012],[4.923340692,51.943819431],[4.92317369,51.943670959],[4.922788197,51.943399504],[4.922367906,51.943147391],[4.92191009,51.942911907],[4.921704555,51.94278314],[4.921458606,51.942682271],[4.921229257,51.942572237],[4.92099577,51.942461069],[4.920754411,51.94235726],[4.920246866,51.942171857],[4.919988501,51.942087967],[4.919744755,51.941989111],[4.918971892,51.941731445],[4.918680543,51.941677682],[4.918413807,51.941599509],[4.918114447,51.941565152],[4.917826814,51.941524053],[4.917250408,51.941460033],[4.916961886,51.94143077],[4.916387052,51.941370798],[4.915812239,51.94131502],[4.914956492,51.94121395],[4.914664088,51.941203419],[4.914376637,51.941175996],[4.914090758,51.941147343],[4.91380162,51.941119788],[4.913515404,51.941091815],[4.913221674,51.941067102],[4.912929643,51.941048963],[4.912640299,51.941016971],[4.91235306,51.94101854],[4.911743554,51.940957416],[4.910043789,51.940834203],[4.909753102,51.940817933],[4.909467688,51.940783636],[4.908885808,51.940767307],[4.908596759,51.940734096],[4.908311613,51.940732426],[4.908029616,51.940703231],[4.907743423,51.940671177],[4.907472822,51.940626862],[4.907198392,51.940575384],[4.906925394,51.940520082],[4.906650213,51.940457799],[4.906090271,51.940348943],[4.905811301,51.940300077],[4.905529876,51.94025157],[4.905256919,51.940186518],[4.90496877,51.940156328],[4.904688424,51.940108731],[4.904408013,51.940061005],[4.903848389,51.939964517],[4.903565894,51.939917495],[4.903291125,51.939854226],[4.902997933,51.939826473],[4.902710002,51.939789236],[4.902422247,51.939757739],[4.90214453,51.939707771],[4.901853787,51.939689939],[4.901573693,51.93965302],[4.900770926,51.939470023],[4.90050708,51.939400965],[4.900228483,51.939347411],[4.899992966,51.939228055],[4.899713202,51.9391617],[4.899422625,51.939104572],[4.899127438,51.939059567],[4.898818586,51.939078261],[4.898523742,51.939051293],[4.897913656,51.939067649],[4.897338966,51.939158088],[4.897079909,51.939184235],[4.896534756,51.939163465],[4.89599993,51.939051111],[4.895736069,51.938979835],[4.895471212,51.938904361],[4.894948856,51.938751443],[4.894431134,51.93859137],[4.893931542,51.938409586],[4.89367617,51.938322563],[4.893408658,51.938252824],[4.89315797,51.938164735],[4.892918958,51.938058799],[4.892651875,51.937984378],[4.892404018,51.937896201],[4.892148142,51.937807709],[4.891894755,51.937717351],[4.891661502,51.937609898],[4.891394534,51.937535194],[4.891156893,51.937430097],[4.890885888,51.937357094],[4.890624937,51.937271677],[4.890363969,51.937192332],[4.890095422,51.937118515],[4.88983303,51.937039605],[4.889286454,51.936900273],[4.889013752,51.936822615],[4.888722056,51.936791891],[4.888440031,51.936746934],[4.887870634,51.936662677],[4.887588267,51.93662273],[4.88702039,51.936542767],[4.886736033,51.936504072],[4.886452211,51.936465332],[4.885884826,51.936385511],[4.885307699,51.936316908],[4.885020698,51.936287853],[4.884446711,51.936229456],[4.884160246,51.936200037],[4.883877703,51.936153049],[4.883596525,51.936105403],[4.883054546,51.936013611],[4.882462031,51.935954079],[4.882161318,51.93594235],[4.881872138,51.935922296],[4.881280131,51.935903692],[4.880984154,51.935917104],[4.880692057,51.935916529],[4.880407571,51.935914319],[4.880134536,51.935890909],[4.879854886,51.935856583],[4.879584317,51.935796126],[4.879035381,51.93568211],[4.8787447,51.935650607],[4.878456419,51.935621217],[4.878178198,51.935572861],[4.877894167,51.935525842],[4.877615553,51.935479774],[4.877335218,51.935431631],[4.877076051,51.935373964],[4.876817451,51.935309603],[4.876579098,51.935204279],[4.876317477,51.935108126],[4.876014744,51.935048267],[4.875729643,51.935029594],[4.875403207,51.935040477],[4.875104272,51.935056314],[4.874817464,51.935092369],[4.874522827,51.93509387],[4.874237948,51.935138799],[4.87393684,51.935157187],[4.873559953,51.935264879],[4.873198462,51.935328361],[4.872919472,51.935344792],[4.872649643,51.935366343],[4.872395848,51.935365368],[4.871814435,51.935404145],[4.871531063,51.935413293],[4.871349046,51.935524737],[4.870693531,51.935558895],[4.870623151,51.935771306],[4.870550761,51.935945411],[4.870479309,51.936119735],[4.870407988,51.936294008],[4.870366622,51.936385068],[4.870705877,51.936493578],[4.870759056,51.936686855],[4.870805439,51.937003358],[4.870651736,51.936986035],[4.870343528,51.936945973],[4.869821725,51.936894391],[4.869630616,51.936878073],[4.86958455,51.936642038],[4.869232562,51.93663692],[4.868911781,51.936643566],[4.868547541,51.936637033],[4.86803644,51.936657993],[4.867458722,51.936640241],[4.867212441,51.936652969],[4.867146748,51.936848335],[4.866869655,51.9369137],[4.866582882,51.936943613],[4.866301114,51.936990973],[4.866014143,51.937020156],[4.865861998,51.937016925],[4.865989366,51.936807885],[4.866095451,51.93664051],[4.866201542,51.936473135],[4.866664623,51.936333812],[4.8667181,51.93610377],[4.866728468,51.93592507],[4.866742565,51.93574546],[4.866690912,51.93550533],[4.866203683,51.935380603],[4.865918895,51.935227457],[4.86573858,51.935025408],[4.865382256,51.935008891],[4.865055665,51.934999545],[4.864744796,51.935081284],[4.864455512,51.935162967],[4.86418926,51.935263275],[4.863950688,51.935372346],[4.863724808,51.935485572],[4.863498926,51.935598798],[4.863272368,51.935712794],[4.863030182,51.935810712],[4.862802292,51.935922389],[4.862328751,51.936129129],[4.86211596,51.936252671],[4.861902489,51.936376069],[4.861653782,51.936470686],[4.86119025,51.936684673],[4.86097231,51.936806444],[4.860739163,51.9369139],[4.860505616,51.937022009],[4.860273903,51.937130644],[4.860042377,51.937240021],[4.859811245,51.937350096],[4.859581864,51.937460613],[4.859351549,51.937568781],[4.859102198,51.937665983],[4.858892509,51.937791277],[4.858663331,51.93790195],[4.858434961,51.938014897],[4.858208398,51.938128035],[4.857982397,51.938240998],[4.857737885,51.938339986],[4.857529896,51.938466559],[4.857303097,51.938578974],[4.857039798,51.938663622],[4.856832808,51.938788843],[4.856599099,51.938901925],[4.856345002,51.939017403],[4.856138465,51.939130449],[4.855920403,51.939221487],[4.855711065,51.939322205],[4.855470569,51.939424882],[4.855176075,51.939496161],[4.854953569,51.939613313],[4.854522765,51.939840331],[4.854286103,51.93991568],[4.854078427,51.939969751],[4.853879013,51.93996292],[4.853616747,51.939913499],[4.853345059,51.93984935],[4.853074633,51.939784762],[4.852792963,51.939736468],[4.852501244,51.939689478],[4.852214521,51.939621215],[4.851930899,51.939587146],[4.851638608,51.939555521],[4.851348741,51.939529017],[4.850769349,51.939465487],[4.850475087,51.939464804],[4.850182037,51.93946638],[4.849894844,51.939432765],[4.849604783,51.939434049],[4.848729455,51.939377124],[4.848436123,51.939369604],[4.848147013,51.939363444],[4.847854692,51.939374597],[4.847569418,51.939350648],[4.847277783,51.939328604],[4.846692345,51.939332269],[4.846405315,51.93930801],[4.8461182,51.939315427],[4.845836385,51.939298059],[4.84555151,51.939273313],[4.845002464,51.939195636],[4.844449113,51.939091765],[4.843887251,51.938986833],[4.843107101,51.938906993],[4.842394868,51.93888587],[4.842104528,51.93888337],[4.841554188,51.938896655],[4.840971516,51.938900248],[4.840679117,51.938868553],[4.840094583,51.938856367],[4.839807234,51.938848758],[4.839262399,51.938778653],[4.838829764,51.938723012],[4.838453481,51.938628758],[4.838182828,51.938561903],[4.837912463,51.938495647],[4.837644971,51.93842932],[4.837102786,51.938305041],[4.836592272,51.938135243],[4.836317248,51.938073437],[4.836054976,51.937995747],[4.835805937,51.937901725],[4.835544112,51.937823462],[4.83528199,51.937745273],[4.83502079,51.937667166],[4.834787611,51.937579808],[4.834559992,51.937481234],[4.83434798,51.937369398],[4.83412643,51.937259167],[4.833803351,51.93697796],[4.833560075,51.936672127],[4.833402973,51.936521028],[4.833379139,51.936332953],[4.833299135,51.936177625],[4.833202442,51.936007849],[4.833120418,51.935824757],[4.832876161,51.935496491],[4.83280274,51.935319475],[4.83274916,51.935132949],[4.832573634,51.934979045],[4.832383007,51.934827869],[4.832244653,51.934668733],[4.832113475,51.934515809],[4.8319642,51.934376515],[4.831856038,51.934209647],[4.831720884,51.934049464],[4.831640513,51.933876142],[4.831533549,51.933708981],[4.831426584,51.933541817],[4.831319619,51.933374655],[4.831210896,51.93320715],[4.831101776,51.933040524],[4.830856582,51.932714011],[4.830767516,51.932539724],[4.830677627,51.932367822],[4.830498322,51.932025204],[4.830383737,51.931859984],[4.830186351,51.93171538],[4.830068112,51.931551144],[4.829949877,51.931386912],[4.829831638,51.931222676],[4.829715485,51.931059262],[4.829601001,51.930894016],[4.829486518,51.93072877],[4.829348581,51.930533362],[4.829319222,51.930412588],[4.829282062,51.930244989],[4.829181221,51.930072092],[4.829020907,51.92987729],[4.828843342,51.929728358],[4.828665702,51.929594225],[4.828492984,51.929445344],[4.828315365,51.929303012],[4.82812456,51.929158314],[4.827877137,51.929042482],[4.827642714,51.928937574],[4.827410201,51.928830953],[4.827172009,51.928726728],[4.826920187,51.928634457],[4.826684359,51.928529081],[4.826463886,51.928410287],[4.826228547,51.928305705],[4.825993536,51.928199847],[4.825735048,51.928098472],[4.825448707,51.928032504],[4.825149961,51.928000252],[4.824861426,51.927978005],[4.824572891,51.927955758],[4.824285609,51.927932487],[4.823997526,51.927908129],[4.823709437,51.92788377],[4.82341962,51.927861398],[4.823130982,51.927839697],[4.822838828,51.92783584],[4.82255257,51.927808311],[4.822272095,51.927764722],[4.821976594,51.927756891],[4.821692248,51.927717177],[4.821408148,51.927695679],[4.821158541,51.927651182],[4.820936269,51.927542194],[4.820721058,51.927422415],[4.820488048,51.92731471],[4.820270341,51.927194523],[4.820071856,51.927062519],[4.819855205,51.926942628],[4.819637063,51.926823419],[4.819419144,51.926704403],[4.819203962,51.926584996],[4.818970802,51.926475914],[4.818777245,51.926340538],[4.818570477,51.926216566],[4.818366998,51.926085961],[4.818167328,51.925960139],[4.817944199,51.925841558],[4.817551504,51.925575017],[4.817347582,51.92544722],[4.817165852,51.925315281],[4.817026959,51.925166467],[4.816966767,51.925026172],[4.816735203,51.924846908],[4.816523069,51.9247244],[4.816319377,51.92459525],[4.816147636,51.924449873],[4.81592991,51.924328936],[4.815731906,51.924197259],[4.815533789,51.924065743],[4.815336068,51.923933946],[4.81513849,51.923802091],[4.814941794,51.923669914],[4.81455046,51.923404006],[4.814347936,51.923273977],[4.814135675,51.923149652],[4.813908041,51.92303589],[4.813673443,51.922928044],[4.813383809,51.922787781],[4.813095816,51.922610649],[4.812720674,51.922495918],[4.812169431,51.922344324],[4.811908738,51.922292667],[4.811342285,51.922199261],[4.811061627,51.922149477],[4.810781508,51.92211604],[4.810514911,51.922055001],[4.810296012,51.921964735],[4.810066538,51.92187035],[4.809858348,51.921754863],[4.809694593,51.921620494],[4.80951441,51.921479423],[4.809292095,51.921344588],[4.80900142,51.921234479],[4.808641513,51.921220271],[4.80837027,51.92129493],[4.807846748,51.921325676],[4.807472653,51.921300081],[4.807005615,51.921268889],[4.806724182,51.921220348],[4.806437775,51.921189518],[4.806152983,51.921158453],[4.805867029,51.921126054],[4.805581024,51.921093652],[4.805302986,51.921060421],[4.805031241,51.921018557],[4.80479357,51.920948279],[4.804493218,51.920912033],[4.804234256,51.920828377],[4.803945262,51.92078019],[4.803662891,51.920723196],[4.803385456,51.920672494],[4.803125165,51.920584725],[4.802552289,51.920485527],[4.80225683,51.920445257],[4.80197417,51.92041257],[4.801681683,51.920381619],[4.80139696,51.920351637],[4.80111923,51.92031742],[4.800841985,51.920277379],[4.800556024,51.920250748],[4.800274497,51.920205924],[4.799989361,51.920163037],[4.799713547,51.920103463],[4.799428362,51.920079001],[4.799147451,51.920032706],[4.798859758,51.919986111],[4.798575689,51.919946814],[4.798290845,51.919907723],[4.798006753,51.919869565],[4.797724363,51.919830605],[4.797439526,51.91979176],[4.797158477,51.919751888],[4.796879131,51.919709431],[4.796597268,51.919665434],[4.796320224,51.919618589],[4.796039841,51.919571093],[4.795760605,51.919523617],[4.795480729,51.919475011],[4.795200844,51.919426402],[4.794917459,51.919378438],[4.794647637,51.919331589],[4.794117872,51.919209933],[4.793864975,51.919135093],[4.793617139,51.919051689],[4.793364329,51.918974321],[4.792860278,51.918794223],[4.792141963,51.918487464],[4.791905641,51.918387786],[4.791662824,51.918261711],[4.791416372,51.918189499],[4.791178916,51.918076669],[4.79097007,51.917966646],[4.790782344,51.917857165],[4.79057114,51.917733643],[4.790370394,51.917609976],[4.789960779,51.917354829],[4.789750258,51.917227446],[4.78951726,51.917093098],[4.789273399,51.916982516],[4.789005418,51.916866391],[4.788726466,51.916804251],[4.788495705,51.916710809],[4.787645445,51.916387016],[4.787408298,51.91628305],[4.787166005,51.916178169],[4.786375561,51.915890996],[4.786118912,51.915823854],[4.78593066,51.91574987],[4.785704102,51.915617987],[4.785448163,51.915511006],[4.785162569,51.915430542],[4.784931325,51.915338713],[4.784681368,51.915246963],[4.78444613,51.915156803],[4.784179305,51.915068955],[4.78390773,51.914971464],[4.783649973,51.914880725],[4.783356539,51.914815222],[4.783080334,51.914759222],[4.782806968,51.914702356],[4.78253165,51.914644689],[4.781945063,51.914574237],[4.781354004,51.914472952],[4.780769713,51.914433399],[4.77995178,51.914331399],[4.779669908,51.914283655],[4.779387389,51.914225316],[4.779068827,51.914207307],[4.778766189,51.914192673],[4.778459989,51.914174418],[4.778163184,51.914201493],[4.777846431,51.914207022],[4.777564035,51.914253235],[4.777261858,51.914297184],[4.776979821,51.914340693],[4.776692007,51.914390797],[4.776199945,51.914522784],[4.775666796,51.914703135],[4.775389056,51.914765901],[4.774567564,51.914939988],[4.774220895,51.914980989],[4.773137587,51.915050389],[4.77285068,51.915100212],[4.772566186,51.91511165],[4.772277353,51.91513877],[4.771991333,51.91514595],[4.771703038,51.915146383],[4.771420194,51.91513774],[4.771130764,51.915124826],[4.770846152,51.9150919],[4.770556748,51.915075045],[4.770271978,51.915058255],[4.769983595,51.915035719],[4.769695197,51.915013183],[4.769410093,51.914988899],[4.769123388,51.91496269],[4.768562335,51.914908743],[4.768273245,51.914882704],[4.767992682,51.914838541],[4.767749921,51.914762371],[4.767522261,51.914697081],[4.767325615,51.914580615],[4.767180322,51.91446088],[4.766983829,51.914324578],[4.766802468,51.914178768],[4.766672021,51.914031797],[4.766530818,51.913885659],[4.76639166,51.913729363],[4.766245314,51.913568539],[4.766102003,51.913415616],[4.765926877,51.913264397],[4.765771539,51.913109228],[4.765590785,51.91295413],[4.765433962,51.912801712],[4.765242482,51.912656451],[4.765050838,51.912521295],[4.764859801,51.912386229],[4.764675912,51.912251634],[4.764498443,51.912114091],[4.764351718,51.911975048],[4.764194452,51.911823878],[4.76403551,51.911672366],[4.763882248,51.911518837],[4.76363494,51.91137581],[4.763222439,51.911096233],[4.762947006,51.911000978],[4.76266607,51.910897104],[4.762397036,51.91082718],[4.762127221,51.910757996],[4.761847087,51.910706806],[4.761564687,51.910642498],[4.761289937,51.910564911],[4.76074387,51.910454569],[4.760477349,51.91039412],[4.7602044,51.91033234],[4.759931452,51.910270559],[4.759668495,51.910191895],[4.759376039,51.910148848],[4.759108838,51.910075841],[4.758814525,51.910054087],[4.758538295,51.909998166],[4.758269372,51.909925428],[4.757983695,51.909887747],[4.75770178,51.909815165],[4.75744247,51.909749754],[4.756891077,51.909651387],[4.756134914,51.909493936],[4.755415516,51.909245118],[4.75483462,51.90908306],[4.754536014,51.908998424],[4.754251564,51.908957349],[4.753970411,51.90890465],[4.753260683,51.908642719],[4.752988398,51.908570286],[4.752740282,51.90847012],[4.752325555,51.908249973],[4.752152869,51.908131973],[4.751987662,51.9079811],[4.751867713,51.907827751],[4.75175988,51.907689815],[4.751688042,51.907507253],[4.75158465,51.907343976],[4.751443722,51.907176395],[4.751141758,51.906848538],[4.751002334,51.906542915],[4.750873241,51.906377893],[4.750825822,51.906198152],[4.750721815,51.906029335],[4.750596228,51.905689897],[4.750573609,51.905509781],[4.75055099,51.905329664],[4.75046754,51.905156932],[4.750381308,51.90494744],[4.750194931,51.904786486],[4.750054485,51.904634605],[4.749934388,51.904482336],[4.749816866,51.904319283],[4.749699434,51.904154845],[4.749556897,51.903984899],[4.74940592,51.903823953],[4.749249238,51.903665139],[4.749064273,51.903492789],[4.748783796,51.903302203],[4.748475335,51.90309435],[4.748217805,51.902983074],[4.747959531,51.90288169],[4.747707192,51.902794734],[4.747402417,51.90270893],[4.747143011,51.902632237],[4.746902777,51.902584006]]}},{"type":"Feature","properties":{"__OBJECTID":2,"id":2,"id_0":2,"soort":"bik","layerid":"kniklijnen","objectid":2,"gebruiker":"postgres","gewijzigd":1614952042118,"layername":"Binnenkruinlijn","layercolor":"#0E3E5D","layerstyle":"id,id,2,uit","shape__len":3083.89526285,"shape_leng":3083.89520193},"geometry":{"type":"LineString","coordinates":[[5.131723242,51.990131285],[5.131424894,51.990341418],[5.131267006,51.990497743],[5.131120473,51.990653082],[5.130973937,51.990808422],[5.130827371,51.990961716],[5.130659447,51.99109377],[5.130465093,51.99122183],[5.130282089,51.99136504],[5.130087208,51.991502385],[5.12988012,51.991626563],[5.129705601,51.991768475],[5.129478972,51.991879038],[5.129266736,51.992000089],[5.129073707,51.992138674],[5.128845567,51.992254226],[5.128643162,51.992383459],[5.127999577,51.992714608],[5.127489533,51.992881072],[5.127231189,51.992964013],[5.126972844,51.993046951],[5.126714525,51.993129771],[5.126456617,51.993210915],[5.12619743,51.99328863],[5.125935125,51.993363394],[5.125647235,51.993402252],[5.125404676,51.99348522],[5.12513164,51.993570888],[5.124861171,51.993641987],[5.124331412,51.993804638],[5.124075284,51.993895432],[5.123824097,51.99399299],[5.123099932,51.994283571],[5.122848486,51.994357464],[5.122579679,51.994424214],[5.12230434,51.994504592],[5.122032069,51.994588537],[5.121806636,51.994703739],[5.121309889,51.994851774],[5.121035941,51.994912906],[5.12076155,51.99497462],[5.12046722,51.995003754],[5.120240828,51.995075299],[5.119974715,51.995124637],[5.119756963,51.995186786],[5.119400184,51.995298067],[5.119130073,51.995365048],[5.118857017,51.995434488],[5.118590196,51.9955066],[5.118320975,51.995582425],[5.117802143,51.995761196],[5.117554695,51.995865114],[5.117319994,51.995976265],[5.117091317,51.996088214],[5.116869584,51.996189641],[5.116628062,51.996265171],[5.116364829,51.996312222],[5.11607918,51.996353965],[5.115505712,51.996423573],[5.11526148,51.996449558],[5.114976962,51.996431927],[5.114691404,51.996409752],[5.114398908,51.99640356],[5.114101275,51.996398982],[5.113508099,51.996405783],[5.113217836,51.996445978],[5.112941748,51.99651981],[5.11213286,51.996722484],[5.111864635,51.996792494],[5.111556747,51.996850831],[5.111082891,51.99695125],[5.1105109,51.997028406],[5.109658615,51.997138001],[5.109086238,51.997207991],[5.108801628,51.997242341],[5.108515649,51.997276246],[5.108222094,51.997294973],[5.107943262,51.997349859],[5.107658376,51.997387146],[5.107380195,51.99742168],[5.107105719,51.997435505],[5.106831333,51.997425291],[5.106537392,51.997406195],[5.106241385,51.997394606],[5.105938886,51.997376253],[5.105638556,51.997412984],[5.105346787,51.99744723],[5.105061238,51.997482497],[5.104775797,51.997517701],[5.104490189,51.997552631],[5.104204536,51.997587555],[5.103921729,51.99761885],[5.103609363,51.997651723],[5.103358772,51.997655558],[5.10308025,51.997679392],[5.10280603,51.997666043],[5.102535216,51.997630402],[5.102282237,51.997569527],[5.102030262,51.997477622],[5.101756209,51.997413878],[5.101491005,51.997339608],[5.101225806,51.997265343],[5.100951886,51.997192235],[5.100676664,51.997129282],[5.100399787,51.997069695],[5.10012113,51.997014289],[5.099848384,51.996956548],[5.099560515,51.996903438],[5.099286177,51.996840502],[5.09900806,51.996792832],[5.098726469,51.996744936],[5.098427354,51.996697566],[5.098252818,51.996596095],[5.098150893,51.996427046],[5.09817565,51.996303242],[5.098214306,51.996083875],[5.09812396,51.995350349],[5.096922221,51.995314098],[5.096673297,51.995679717],[5.096578129,51.996098035],[5.096574864,51.996602191],[5.096481139,51.996796968],[5.09613962,51.996798966],[5.095856813,51.996828719],[5.095552731,51.996845631],[5.094817159,51.996854559]]}},{"type":"Feature","properties":{"__OBJECTID":3,"id":3,"id_0":3,"soort":"bik","layerid":"kniklijnen","objectid":3,"gebruiker":"postgres","gewijzigd":1614952042118,"layername":"Binnenkruinlijn","layercolor":"#0E3E5D","layerstyle":"id,id,2,uit","shape__len":4825.10024646,"shape_leng":4825.10010084},"geometry":{"type":"LineString","coordinates":[[5.173646772,51.962863857],[5.173363308,51.962957852],[5.173111356,51.963043584],[5.172855792,51.963130352],[5.172614856,51.963232759],[5.17235944,51.963319594],[5.172105361,51.963407229],[5.171851278,51.963494866],[5.171597197,51.9635825],[5.171344369,51.963668736],[5.171076132,51.963729595],[5.17082385,51.963813196],[5.169999243,51.963970885],[5.169720799,51.963990814],[5.16945957,51.964007965],[5.168960101,51.963874686],[5.168702776,51.963783074],[5.168427106,51.963709398],[5.168119147,51.963654014],[5.167807007,51.963676749],[5.167496009,51.963749412],[5.167258845,51.963888661],[5.16710728,51.964049812],[5.167005686,51.964223548],[5.166875815,51.964367276],[5.166670583,51.964441001],[5.166404275,51.964502088],[5.166131325,51.964554301],[5.165578036,51.964659331],[5.165293978,51.964703226],[5.165003181,51.964735053],[5.164731359,51.964805743],[5.164177551,51.96492361],[5.163903624,51.964988922],[5.163635056,51.965067447],[5.163361303,51.965139614],[5.163122966,51.965242963],[5.162867237,51.965321687],[5.162603464,51.965390999],[5.162315163,51.965421696],[5.162055123,51.965494232],[5.161779865,51.965542914],[5.161495781,51.965566223],[5.161220748,51.965617321],[5.160929723,51.96562998],[5.160652526,51.965695922],[5.160363723,51.965727576],[5.15979113,51.965804712],[5.159501239,51.96583132],[5.158934746,51.965893516],[5.158652566,51.965948029],[5.158365332,51.965992913],[5.158091932,51.966064921],[5.157814845,51.966119883],[5.157516497,51.966144417],[5.157247601,51.966195938],[5.1569681,51.966246868],[5.156411089,51.966337353],[5.156135656,51.966398311],[5.155573077,51.966502261],[5.15507348,51.966586748],[5.154792079,51.966581034],[5.154599888,51.966493916],[5.154252515,51.966438371],[5.153936917,51.966489589],[5.153690506,51.966578543],[5.153469905,51.966682223],[5.153232979,51.966798074],[5.152851004,51.967065126],[5.152617323,51.967170496],[5.152375789,51.96727494],[5.152183739,51.9674152],[5.151956919,51.967530712],[5.151773777,51.96767157],[5.151570402,51.967799286],[5.151343586,51.967913344],[5.151157823,51.968052888],[5.150913086,51.968150278],[5.150717751,51.968284745],[5.1505028,51.968405934],[5.150307311,51.968540169],[5.150072458,51.968647852],[5.149878261,51.968784366],[5.14964618,51.968894318],[5.149434023,51.969017375],[5.149221865,51.96914043],[5.149029628,51.969276591],[5.148817698,51.969401134],[5.148629265,51.969539307],[5.148400263,51.969651696],[5.14819195,51.969777793],[5.147984707,51.969904005],[5.147736588,51.970004618],[5.147526595,51.970134802],[5.147329089,51.970276471],[5.147177096,51.97043853],[5.147023905,51.970600482],[5.146896847,51.970768978],[5.146815288,51.970943318],[5.146681365,51.971103931],[5.146574508,51.971271138],[5.146413504,51.971425148],[5.146253937,51.971772769],[5.145987513,51.972287601],[5.145853581,51.972448208],[5.145666931,51.972789227],[5.145505961,51.972943326],[5.145400967,51.973113867],[5.145307217,51.973285906],[5.145223674,51.97346193],[5.145104259,51.973815716],[5.145010871,51.973988485],[5.144895915,51.974344283],[5.144847682,51.974521562],[5.14474367,51.974693857],[5.144692809,51.975046702],[5.144615769,51.975217169],[5.144531293,51.975387618],[5.144473146,51.975564672],[5.144387187,51.975736417],[5.144276585,51.975908509],[5.144221504,51.976079808],[5.144164654,51.976453554],[5.14417045,51.976634177],[5.144082809,51.976986069],[5.144032237,51.977158577],[5.143967136,51.977329798],[5.143790547,51.977665077],[5.143582228,51.978102586],[5.143341083,51.978521745],[5.143116652,51.978843222],[5.142977183,51.978999779],[5.14283474,51.979155054],[5.142684956,51.979307504],[5.142502375,51.979446995],[5.142318294,51.979589933],[5.142213519,51.979762546],[5.1420397,51.979909167],[5.141893182,51.980064805],[5.141649574,51.980289309],[5.141529178,51.980453965],[5.141384382,51.980610437],[5.141240577,51.980767152],[5.141097855,51.980923835],[5.140955144,51.981080516],[5.140812425,51.981237192],[5.140669703,51.98139387],[5.140551841,51.981559026],[5.140408473,51.98171548],[5.140259276,51.98186174],[5.140055669,51.981981051],[5.139868247,51.982108853],[5.139389658,51.982300181],[5.13914223,51.98239491],[5.138861653,51.982460505],[5.138631474,51.982583078],[5.138423028,51.982718096],[5.13821796,51.98285206],[5.138002464,51.982943864],[5.137774949,51.983031267],[5.137474615,51.983059604],[5.137199069,51.983141006],[5.136968741,51.983264749],[5.136706938,51.983338157],[5.136468857,51.983418206],[5.136197953,51.983458865],[5.135909025,51.983465153],[5.135654936,51.983446061],[5.135368468,51.98339741],[5.13509187,51.983362304],[5.134755483,51.983358446],[5.134458718,51.983438241],[5.134189427,51.983544583],[5.133948929,51.983789136],[5.133760073,51.984064167],[5.133769119,51.984257242],[5.133794032,51.98446306],[5.133898423,51.984590602],[5.134013957,51.984710492],[5.134217996,51.984851012],[5.134424837,51.984989005],[5.134620289,51.985104243],[5.134779845,51.985244713],[5.134891079,51.985399104],[5.134950351,51.985564828],[5.134955474,51.985732378],[5.134901813,51.985908361],[5.134905531,51.986089005],[5.13485124,51.98626653],[5.134854957,51.986447173],[5.134829667,51.986626259],[5.134804385,51.986805343],[5.134779099,51.986984426],[5.134753805,51.987163508],[5.134728516,51.987342597],[5.134703235,51.987521676],[5.134677174,51.987700462],[5.134618702,51.987863084],[5.134481972,51.988009488],[5.134366416,51.98818019],[5.134272647,51.988363623],[5.13414812,51.988542515],[5.133680857,51.9890735],[5.133512222,51.989216865],[5.133311764,51.989344575],[5.133105558,51.989463841],[5.132867644,51.989548233],[5.132603225,51.989631652],[5.132352531,51.98974765],[5.132134232,51.989869396],[5.131938099,51.990003481],[5.131723242,51.990131285]]}}],"crs":{"type":"name","properties":{"name":"EPSG:4326"}}}