{
"type": "FeatureCollection",
"name": "zwo_sample_2km",
"crs": { "type": "name", "properties": { "name": "urn:ogc:def:crs:EPSG::28992" } },
"features": [
{ "type": "Feature", "properties": { "id": 1, "naam": "ZWO_sample_2km" }, "geometry": { "type": "LineString", "coordinates": [ [ 165734.369000002741814, 433335.261900000274181 ], [ 165720.293999999761581, 433337.706000000238419 ], [ 165707.446000002324581, 433339.400000002235174 ], [ 165701.514000002294779, 433340.141000002622604 ], [ 165695.164000000804663, 433340.461000002920628 ], [ 165686.733000002801418, 433340.760999999940395 ], [ 165680.274000000208616, 433340.908100001513958 ], [ 165668.013000000268221, 433340.645100001245737 ], [ 165656.462000001221895, 433339.958000000566244 ], [ 165644.968000002205372, 433338.608000002801418 ], [ 165634.195000000298023, 433336.929999999701977 ], [ 165625.504000000655651, 433335.213000003248453 ], [ 165614.181000001728535, 433332.744000002741814 ], [ 165603.686000000685453, 433329.890000000596046 ], [ 165597.082000002264977, 433328.16100000217557 ], [ 165591.290000002831221, 433326.561000000685453 ], [ 165582.615000002086163, 433324.182000000029802 ], [ 165575.992000002413988, 433322.589000001549721 ], [ 165571.301000002771616, 433321.631100002676249 ], [ 165542.274000000208616, 433313.254000000655651 ], [ 165538.811000000685453, 433312.246000003069639 ], [ 165533.178000003099442, 433310.543999999761581 ], [ 165526.789000000804663, 433308.788000002503395 ], [ 165517.236000001430511, 433306.164100002497435 ], [ 165511.827000003308058, 433304.619000002741814 ], [ 165508.377000000327826, 433303.867900002747774 ], [ 165502.278000000864267, 433302.21000000089407 ], [ 165498.230000000447035, 433301.039000000804663 ], [ 165492.265000000596046, 433298.879000000655651 ], [ 165486.056099999696016, 433297.073000002652407 ], [ 165479.573000002652407, 433295.837000001221895 ], [ 165448.901000000536442, 433287.554999999701977 ], [ 165441.012000001966953, 433285.166000001132488 ], [ 165431.929999999701977, 433282.614000000059605 ], [ 165413.706000000238419, 433278.528000000864267 ], [ 165407.907000001519918, 433277.355000000447035 ], [ 165401.133000001311302, 433275.993000000715256 ], [ 165388.663000002503395, 433274.125 ], [ 165376.784000001847744, 433271.963000003248453 ], [ 165364.854000002145767, 433270.334000002592802 ], [ 165357.528000000864267, 433269.359000001102686 ], [ 165350.256000000983477, 433268.581000000238419 ], [ 165342.593100000172853, 433267.837000001221895 ], [ 165335.172000002115965, 433267.424900002777576 ], [ 165326.886100001633167, 433266.848100002855062 ], [ 165317.184000000357628, 433266.306000001728535 ], [ 165309.242000002413988, 433266.047000002115965 ], [ 165298.179999999701977, 433265.937000002712011 ], [ 165286.028000000864267, 433265.906000003218651 ], [ 165274.678000003099442, 433266.124000001698732 ], [ 165263.719000000506639, 433266.312000002712011 ], [ 165255.028000000864267, 433266.510999999940395 ], [ 165246.260999999940395, 433266.812900003045797 ], [ 165235.822000000625849, 433266.58500000089407 ], [ 165224.721000000834465, 433266.58500000089407 ], [ 165215.771999999880791, 433266.763000000268221 ], [ 165203.952000003308058, 433267.005000002682209 ], [ 165188.962000001221895, 433267.045000001788139 ], [ 165176.885900001972914, 433266.907000001519918 ], [ 165166.089900001883507, 433267.158100001513958 ], [ 165155.708000000566244, 433267.323000002652407 ], [ 165143.239000000059605, 433267.595000002533197 ], [ 165132.260999999940395, 433267.589999999850988 ], [ 165120.332000002264977, 433267.819000001996756 ], [ 165109.752000000327826, 433267.929999999701977 ], [ 165103.780000001192093, 433267.902900002896786 ], [ 165092.524000000208616, 433268.251900002360344 ], [ 165084.565999999642372, 433268.747999999672174 ], [ 165074.632000003010035, 433268.580099999904633 ], [ 165065.208000000566244, 433268.328000001609325 ], [ 165056.0760000012815, 433267.967000000178814 ], [ 165045.872999999672174, 433267.319900002330542 ], [ 165036.256000000983477, 433266.979000002145767 ], [ 165028.254000000655651, 433266.646999999880791 ], [ 165015.448000002652407, 433264.006100002676249 ], [ 165011.889000002294779, 433263.550900001078844 ], [ 164996.071000002324581, 433260.588899999856949 ], [ 164981.381000000983477, 433258.024000000208616 ], [ 164960.292000003159046, 433253.826900001615286 ], [ 164952.128000002354383, 433252.282999999821186 ], [ 164941.475999999791384, 433250.918000001460314 ], [ 164928.999000001698732, 433249.848000001162291 ], [ 164916.523000001907349, 433248.841000001877546 ], [ 164910.012000001966953, 433248.428000003099442 ], [ 164899.30800000205636, 433247.685000002384186 ], [ 164891.596900001168251, 433247.059000000357628 ], [ 164885.677000001072884, 433246.344000000506639 ], [ 164879.137000001966953, 433245.581000000238419 ], [ 164871.387000001966953, 433245.265100002288818 ], [ 164865.422000002115965, 433244.679999999701977 ], [ 164855.978000000119209, 433243.679999999701977 ], [ 164851.195000000298023, 433243.578999999910593 ], [ 164841.070000000298023, 433242.728900000452995 ], [ 164834.561000000685453, 433242.208100002259016 ], [ 164829.784000001847744, 433242.031000003218651 ], [ 164816.758000001311302, 433240.565000001341105 ], [ 164807.257000003010035, 433239.400000002235174 ], [ 164797.304999999701977, 433237.646100003272295 ], [ 164787.581000000238419, 433236.51690000295639 ], [ 164778.921000000089407, 433234.679000001400709 ], [ 164773.821000002324581, 433233.722000002861023 ], [ 164769.195000000298023, 433232.547000002115965 ], [ 164761.671000000089407, 433230.690100003033876 ], [ 164752.528000000864267, 433227.921000000089407 ], [ 164747.948000002652407, 433226.633000001311302 ], [ 164738.271999999880791, 433223.594000000506639 ], [ 164734.206000000238419, 433222.639000002294779 ], [ 164727.353000000119209, 433220.565100003033876 ], [ 164723.945000000298023, 433219.548900000751019 ], [ 164713.904000002890825, 433217.958000000566244 ], [ 164707.414000000804663, 433217.216099999845028 ], [ 164693.769000001251698, 433216.021999999880791 ], [ 164680.580000001937151, 433216.419900000095367 ], [ 164670.516000002622604, 433217.247000001370907 ], [ 164663.425000000745058, 433218.422000002115965 ], [ 164647.813000001013279, 433222.278000000864267 ], [ 164638.781000003218651, 433224.852000001817942 ], [ 164630.546000000089407, 433226.896000001579523 ], [ 164627.563000001013279, 433227.186000000685453 ], [ 164621.11600000038743, 433228.253000002354383 ], [ 164617.5760000012815, 433228.48589999973774 ], [ 164614.625, 433228.534000001847744 ], [ 164608.137000001966953, 433227.997000001370907 ], [ 164603.456000000238419, 433227.371000003069639 ], [ 164599.959900002926588, 433226.875 ], [ 164595.865000002086163, 433226.050000000745058 ], [ 164588.845000002533197, 433224.665900003165007 ], [ 164583.288000002503395, 433222.520000003278255 ], [ 164577.952899999916553, 433219.898000001907349 ], [ 164572.557000000029802, 433216.254000000655651 ], [ 164563.814000003039837, 433209.977000001817942 ], [ 164555.675000000745058, 433203.973900001496077 ], [ 164546.787000000476837, 433196.909000001847744 ], [ 164545.630000002682209, 433194.977900002151728 ], [ 164534.935000002384186, 433187.111000001430511 ], [ 164523.617000002413988, 433177.9510000012815 ], [ 164496.039000000804663, 433157.847000002861023 ], [ 164488.051000002771616, 433152.55800000205636 ], [ 164484.355000000447035, 433149.336000002920628 ], [ 164478.083000000566244, 433145.067999999970198 ], [ 164468.744000002741814, 433138.506000000983477 ], [ 164451.146999999880791, 433126.207000002264977 ], [ 164436.980000000447035, 433118.102099999785423 ], [ 164434.265000000596046, 433116.745000001043081 ], [ 164430.613000001758337, 433114.993000000715256 ], [ 164427.281000003218651, 433113.561000000685453 ], [ 164423.258000001311302, 433111.957000002264977 ], [ 164420.223000001162291, 433110.847000002861023 ], [ 164415.63289999961853, 433109.241900000721216 ], [ 164411.905900001525879, 433108.058100000023842 ], [ 164407.19200000166893, 433106.75 ], [ 164403.713000003248453, 433105.837000001221895 ], [ 164399.468000002205372, 433104.899100001901388 ], [ 164395.494000002741814, 433104.108900003135204 ], [ 164391.29900000244379, 433103.369000002741814 ], [ 164387.054000001400709, 433102.752000000327826 ], [ 164381.970100000500679, 433102.233900003135204 ], [ 164377.084000002592802, 433101.739900000393391 ], [ 164373.554999999701977, 433101.469000000506639 ], [ 164330.760999999940395, 433094.910000000149012 ], [ 164265.073000002652407, 433084.178000003099442 ], [ 164232.598000001162291, 433078.315999999642372 ], [ 164214.749000001698732, 433075.160000000149012 ], [ 164197.753000002354383, 433072.212900001555681 ], [ 164180.163000002503395, 433069.208000000566244 ], [ 164169.964999999850988, 433067.466099999845028 ], [ 164169.653000000864267, 433067.413000002503395 ], [ 164158.041000001132488, 433065.581900000572205 ], [ 164157.556000001728535, 433065.561000000685453 ], [ 164155.53600000217557, 433065.472000002861023 ], [ 164154.970000002533197, 433065.448000002652407 ], [ 164153.306000001728535, 433065.50899999961257 ], [ 164149.574000000953674, 433064.656000003218651 ], [ 164142.725999999791384, 433063.087100002914667 ], [ 164138.179999999701977, 433062.413000002503395 ], [ 164103.25, 433055.586000002920628 ], [ 164099.350999999791384, 433054.648000001907349 ], [ 164091.935000002384186, 433053.655000001192093 ], [ 164087.293999999761581, 433052.475999999791384 ], [ 164077.624000001698732, 433051.208100002259016 ], [ 164073.648000001907349, 433050.224899999797344 ], [ 164069.148000001907349, 433049.778000000864267 ], [ 164064.69200000166893, 433049.287100002169609 ], [ 164058.444000001996756, 433049.021999999880791 ], [ 164054.823000002652407, 433048.878000002354383 ], [ 164036.457000002264977, 433049.520899999886751 ], [ 164023.9831000007689, 433051.762099999934435 ], [ 164011.583000000566244, 433054.052100002765656 ], [ 164006.438000001013279, 433054.994000002741814 ], [ 164002.572000000625849, 433055.904000002890825 ], [ 164000.330900002270937, 433056.521000001579523 ], [ 163995.39300000295043, 433058.210100002586842 ], [ 163990.586000002920628, 433059.997000001370907 ], [ 163985.185000002384186, 433062.263000000268221 ], [ 163979.844000000506639, 433064.728000000119209 ], [ 163976.352000001817942, 433066.470000002533197 ], [ 163969.137000001966953, 433070.378000002354383 ], [ 163962.394000001251698, 433074.164100002497435 ], [ 163952.869000002741814, 433079.780000001192093 ], [ 163940.667000003159046, 433087.186000000685453 ], [ 163938.017000000923872, 433088.900000002235174 ], [ 163935.972000002861023, 433090.380000002682209 ], [ 163932.92510000243783, 433093.0439000017941 ], [ 163930.641000002622604, 433095.659099999815226 ], [ 163929.073000002652407, 433097.547900002449751 ], [ 163927.71000000089407, 433100.056000001728535 ], [ 163926.997000001370907, 433101.737900000065565 ], [ 163926.247000001370907, 433104.103000000119209 ], [ 163925.038000002503395, 433106.093000002205372 ], [ 163923.962000001221895, 433108.619000002741814 ], [ 163923.240000002086163, 433110.396100003272295 ], [ 163922.828000001609325, 433111.595000002533197 ], [ 163921.455000001937151, 433113.889000002294779 ], [ 163917.606000002473593, 433122.871000003069639 ], [ 163916.926000002771616, 433124.722000002861023 ], [ 163916.222000002861023, 433126.328999999910593 ], [ 163915.782999999821186, 433127.097000002861023 ], [ 163913.462000001221895, 433132.55290000140667 ], [ 163910.168000001460314, 433140.21510000154376 ], [ 163906.633000001311302, 433147.179999999701977 ], [ 163906.348000001162291, 433148.603100001811981 ], [ 163905.603000000119209, 433150.646999999880791 ], [ 163903.907000001519918, 433152.640000000596046 ], [ 163902.559000000357628, 433155.85700000077486 ], [ 163901.611000001430511, 433157.168999999761581 ], [ 163897.837000001221895, 433162.244000002741814 ], [ 163895.762000001966953, 433165.551000002771616 ], [ 163884.14300000295043, 433177.043999999761581 ], [ 163882.848000001162291, 433178.305100001394749 ], [ 163881.160000000149012, 433180.135999999940395 ], [ 163877.613000001758337, 433183.25 ], [ 163875.613000001758337, 433185.566899999976158 ], [ 163872.740000002086163, 433186.781100001186132 ], [ 163868.466000001877546, 433189.603100001811981 ], [ 163863.729000002145767, 433192.407000001519918 ], [ 163861.297000002115965, 433193.567999999970198 ], [ 163857.464705613878323, 433195.411526875628624 ] ] } }
]
}
