{"type": "FeatureCollection", "features": [{"type": "Feature", "geometry": {"type": "LineString", "coordinates": [[165734.36900000274, 433335.2619000003], [165720.29399999976, 433337.70600000024], [165707.44600000232, 433339.40000000224], [165701.5140000023, 433340.1410000026], [165695.1640000008, 433340.4610000029], [165686.7330000028, 433340.76099999994], [165680.2740000002, 433340.9081000015], [165668.01300000027, 433340.64510000125], [165656.46200000122, 433339.95800000057], [165644.9680000022, 433338.6080000028], [165634.1950000003, 433336.9299999997], [165625.50400000066, 433335.21300000325], [165614.18100000173, 433332.74400000274], [165603.6860000007, 433329.8900000006], [165597.08200000226, 433328.1610000022], [165591.29000000283, 433326.5610000007], [165582.6150000021, 433324.18200000003], [165575.9920000024, 433322.58900000155], [165571.30100000277, 433321.6311000027], [165542.2740000002, 433313.25400000066], [165538.8110000007, 433312.24600000307], [165533.1780000031, 433310.54399999976], [165526.7890000008, 433308.7880000025], [165517.23600000143, 433306.1641000025], [165511.8270000033, 433304.61900000274], [165508.37700000033, 433303.86790000275], [165502.27800000086, 433302.2100000009], [165498.23000000045, 433301.0390000008], [165492.2650000006, 433298.87900000066], [165486.0560999997, 433297.07300000265], [165479.57300000265, 433295.8370000012], [165448.90100000054, 433287.5549999997], [165441.01200000197, 433285.16600000113], [165431.9299999997, 433282.61400000006], [165413.70600000024, 433278.52800000086], [165407.90700000152, 433277.35500000045], [165401.1330000013, 433275.9930000007], [165388.6630000025, 433274.125], [165376.78400000185, 433271.96300000325], [165364.85400000215, 433270.3340000026], [165357.52800000086, 433269.3590000011], [165350.25600000098, 433268.58100000024], [165342.59310000017, 433267.8370000012], [165335.17200000212, 433267.4249000028], [165326.88610000163, 433266.84810000286], [165317.18400000036, 433266.3060000017], [165309.2420000024, 433266.0470000021], [165298.1799999997, 433265.9370000027], [165286.02800000086, 433265.9060000032], [165274.6780000031, 433266.1240000017], [165263.7190000005, 433266.3120000027], [165255.02800000086, 433266.51099999994], [165246.26099999994, 433266.81290000305], [165235.82200000063, 433266.5850000009], [165224.72100000083, 433266.5850000009], [165215.77199999988, 433266.76300000027], [165203.9520000033, 433267.0050000027], [165188.96200000122, 433267.0450000018], [165176.88590000197, 433266.9070000015], [165166.08990000188, 433267.1581000015], [165155.70800000057, 433267.32300000265], [165143.23900000006, 433267.59500000253], [165132.26099999994, 433267.58999999985], [165120.33200000226, 433267.819000002], [165109.75200000033, 433267.9299999997], [165103.7800000012, 433267.9029000029], [165092.5240000002, 433268.25190000236], [165084.56599999964, 433268.7479999997], [165074.632000003, 433268.5800999999], [165065.20800000057, 433268.3280000016], [165056.07600000128, 433267.9670000002], [165045.87299999967, 433267.31990000233], [165036.25600000098, 433266.97900000215], [165028.25400000066, 433266.6469999999], [165015.44800000265, 433264.0061000027], [165011.8890000023, 433263.5509000011], [164996.07100000232, 433260.58889999986], [164981.38100000098, 433258.0240000002], [164960.29200000316, 433253.8269000016], [164952.12800000235, 433252.2829999998], [164941.4759999998, 433250.91800000146], [164928.9990000017, 433249.84800000116], [164916.5230000019, 433248.8410000019], [164910.01200000197, 433248.4280000031], [164899.30800000206, 433247.6850000024], [164891.59690000117, 433247.05900000036], [164885.67700000107, 433246.3440000005], [164879.13700000197, 433245.58100000024], [164871.38700000197, 433245.2651000023], [164865.42200000212, 433244.6799999997], [164855.97800000012, 433243.6799999997], [164851.1950000003, 433243.5789999999], [164841.0700000003, 433242.72890000045], [164834.5610000007, 433242.20810000226], [164829.78400000185, 433242.0310000032], [164816.7580000013, 433240.56500000134], [164807.257000003, 433239.40000000224], [164797.3049999997, 433237.6461000033], [164787.58100000024, 433236.51690000296], [164778.9210000001, 433234.6790000014], [164773.82100000232, 433233.72200000286], [164769.1950000003, 433232.5470000021], [164761.6710000001, 433230.69010000303], [164752.52800000086, 433227.9210000001], [164747.94800000265, 433226.6330000013], [164738.27199999988, 433223.5940000005], [164734.20600000024, 433222.6390000023], [164727.35300000012, 433220.56510000303], [164723.9450000003, 433219.54890000075], [164713.9040000029, 433217.95800000057], [164707.4140000008, 433217.21609999985], [164693.76900000125, 433216.0219999999], [164680.58000000194, 433216.4199000001], [164670.51600000262, 433217.2470000014], [164663.42500000075, 433218.4220000021], [164647.813000001, 433222.27800000086], [164638.78100000322, 433224.8520000018], [164630.5460000001, 433226.8960000016], [164627.563000001, 433227.1860000007], [164621.1160000004, 433228.25300000235], [164617.57600000128, 433228.48589999974], [164614.625, 433228.53400000185], [164608.13700000197, 433227.9970000014], [164603.45600000024, 433227.37100000307], [164599.95990000293, 433226.875], [164595.8650000021, 433226.05000000075], [164588.84500000253, 433224.66590000317], [164583.2880000025, 433222.5200000033], [164577.95289999992, 433219.8980000019], [164572.55700000003, 433216.25400000066], [164563.81400000304, 433209.9770000018], [164555.67500000075, 433203.9739000015], [164546.78700000048, 433196.90900000185], [164545.63000000268, 433194.97790000215], [164534.93500000238, 433187.11100000143], [164523.6170000024, 433177.9510000013], [164496.0390000008, 433157.84700000286], [164488.05100000277, 433152.55800000206], [164484.35500000045, 433149.3360000029], [164478.08300000057, 433145.06799999997], [164468.74400000274, 433138.506000001], [164451.14699999988, 433126.20700000226], [164436.98000000045, 433118.1020999998], [164434.2650000006, 433116.74500000104], [164430.61300000176, 433114.9930000007], [164427.28100000322, 433113.5610000007], [164423.2580000013, 433111.95700000226], [164420.22300000116, 433110.84700000286], [164415.63289999962, 433109.2419000007], [164411.90590000153, 433108.0581], [164407.19200000167, 433106.75], [164403.71300000325, 433105.8370000012], [164399.4680000022, 433104.8991000019], [164395.49400000274, 433104.10890000314], [164391.29900000244, 433103.36900000274], [164387.0540000014, 433102.7520000003], [164381.9701000005, 433102.23390000314], [164377.0840000026, 433101.7399000004], [164373.5549999997, 433101.4690000005], [164330.76099999994, 433094.91000000015], [164265.07300000265, 433084.1780000031], [164232.59800000116, 433078.31599999964], [164214.7490000017, 433075.16000000015], [164197.75300000235, 433072.21290000156], [164180.1630000025, 433069.20800000057], [164169.96499999985, 433067.46609999985], [164169.65300000086, 433067.4130000025], [164158.04100000113, 433065.5819000006], [164157.55600000173, 433065.5610000007], [164155.53600000218, 433065.47200000286], [164154.97000000253, 433065.44800000265], [164153.30600000173, 433065.5089999996], [164149.57400000095, 433064.6560000032], [164142.7259999998, 433063.0871000029], [164138.1799999997, 433062.4130000025], [164103.25, 433055.5860000029], [164099.3509999998, 433054.6480000019], [164091.93500000238, 433053.6550000012], [164087.29399999976, 433052.4759999998], [164077.6240000017, 433051.20810000226], [164073.6480000019, 433050.2248999998], [164069.1480000019, 433049.77800000086], [164064.69200000167, 433049.28710000217], [164058.444000002, 433049.0219999999], [164054.82300000265, 433048.87800000235], [164036.45700000226, 433049.5208999999], [164023.98310000077, 433051.76209999993], [164011.58300000057, 433054.05210000277], [164006.438000001, 433054.99400000274], [164002.57200000063, 433055.9040000029], [164000.33090000227, 433056.5210000016], [163995.39300000295, 433058.2101000026], [163990.58600000292, 433059.9970000014], [163985.18500000238, 433062.26300000027], [163979.8440000005, 433064.7280000001], [163976.35200000182, 433066.47000000253], [163969.13700000197, 433070.37800000235], [163962.39400000125, 433074.1641000025], [163952.86900000274, 433079.7800000012], [163940.66700000316, 433087.1860000007], [163938.01700000092, 433088.90000000224], [163935.97200000286, 433090.3800000027], [163932.92510000244, 433093.0439000018], [163930.64100000262, 433095.6590999998], [163929.07300000265, 433097.54790000245], [163927.7100000009, 433100.0560000017], [163926.99700000137, 433101.73790000007], [163926.24700000137, 433104.1030000001], [163925.0380000025, 433106.0930000022], [163923.96200000122, 433108.61900000274], [163923.2400000021, 433110.3961000033], [163922.8280000016, 433111.59500000253], [163921.45500000194, 433113.8890000023], [163917.60600000247, 433122.87100000307], [163916.92600000277, 433124.72200000286], [163916.22200000286, 433126.3289999999], [163915.78299999982, 433127.09700000286], [163913.46200000122, 433132.5529000014], [163910.16800000146, 433140.21510000154], [163906.6330000013, 433147.1799999997], [163906.34800000116, 433148.6031000018], [163905.60300000012, 433150.6469999999], [163903.90700000152, 433152.6400000006], [163902.55900000036, 433155.8570000008], [163901.61100000143, 433157.16899999976], [163897.83700000122, 433162.24400000274], [163895.76200000197, 433165.5510000028], [163884.14300000295, 433177.04399999976], [163882.84800000116, 433178.3051000014], [163881.16000000015, 433180.13599999994], [163877.61300000176, 433183.25], [163875.61300000176, 433185.5669], [163872.7400000021, 433186.7811000012], [163868.46600000188, 433189.6031000018], [163863.72900000215, 433192.4070000015], [163861.29700000212, 433193.56799999997], [163854.59500000253, 433196.79200000316], [163850.70600000024, 433198.29100000113], [163848.01300000027, 433199.2649000026], [163844.10200000182, 433200.5360000022], [163834.03600000218, 433203.7240000032], [163826.42500000075, 433206.0170000009], [163813.18200000003, 433209.58999999985], [163807.8030000031, 433210.631000001], [163795.02700000256, 433213.0940000005], [163786.45700000226, 433214.75890000165], [163784.76600000262, 433215.0990000032], [163782.70700000226, 433215.6390000023], [163781.00400000066, 433215.64300000295], [163779.23500000313, 433215.4110000022], [163777.6009999998, 433215.34600000083], [163773.89500000328, 433215.4310000017], [163765.03200000152, 433214.92610000074], [163750.27800000086, 433213.0370000005], [163746.06599999964, 433213.01099999994], [163742.24490000308, 433211.47000000253], [163741.5450000018, 433211.2520000003], [163737.16100000218, 433209.4979000017], [163721.25200000033, 433200.27600000054], [163718.2330000028, 433199.382000003], [163713.89300000295, 433197.74600000307], [163706.5840000026, 433193.633100003], [163673.9130000025, 433183.0200000033], [163672.9600000009, 433182.3990000002], [163671.61190000176, 433181.8960000016], [163670.2030000016, 433181.7970000021], [163664.55200000107, 433180.8340000026], [163657.08800000325, 433179.631000001], [163651.11000000313, 433178.69099999964], [163642.28500000015, 433177.4370000027], [163641.1090000011, 433177.58900000155], [163639.99400000274, 433177.90100000054], [163638.9050000012, 433178.04410000145], [163637.50200000033, 433177.6561000012], [163636.15900000185, 433177.2829999998], [163635.8200000003, 433177.1070000008], [163634.3509999998, 433176.74400000274], [163633.07400000095, 433176.4079999998], [163632.45800000057, 433176.2511], [163626.97200000286, 433175.4110000022], [163618.68400000036, 433174.4601000026], [163609.02199999988, 433173.377100002], [163601.28200000152, 433172.4660000019], [163593.62100000307, 433171.5300000012], [163588.87900000066, 433171.17510000244], [163587.77600000054, 433170.7670000009], [163585.39400000125, 433170.4509000033], [163582.4290000014, 433170.9510000013], [163580.16000000015, 433170.8910000026], [163579.87299999967, 433170.9200000018], [163568.23900000006, 433170.3081], [163565.1000000015, 433170.16899999976], [163562.02600000054, 433170.131000001], [163559.8900000006, 433170.0851000026], [163556.9210000001, 433169.82400000095], [163546.74500000104, 433169.77500000224], [163539.81700000167, 433169.561900001], [163530.90600000322, 433169.4791000001], [163518.12200000137, 433169.86290000007], [163510.22200000286, 433171.2410000004], [163504.29200000316, 433172.7710000016], [163500.58900000155, 433173.9791000001], [163496.83999999985, 433175.62000000104], [163489.33600000292, 433179.9140000008], [163483.86400000006, 433182.77600000054], [163477.48000000045, 433186.41600000113], [163473.9840000011, 433188.29399999976], [163470.74799999967, 433189.4280000031], [163463.76600000262, 433193.06599999964], [163460.39400000125, 433194.7650000006], [163457.1080000028, 433196.41110000014], [163436.32200000063, 433207.33000000194], [163427.54900000244, 433209.1000000015], [163421.00500000268, 433210.3990000002], [163412.8900000006, 433211.54200000316], [163409.16700000316, 433211.8839999996], [163398.78100000322, 433212.33300000057], [163388.06799999997, 433212.2250000015], [163378.62800000235, 433212.23010000214], [163366.71300000325, 433212.37000000104], [163348.5840000026, 433212.7511], [163336.17700000107, 433213.29900000244], [163318.6950000003, 433214.0329999998], [163302.6870000027, 433214.9680000022], [163294.17600000277, 433215.16010000184], [163289.17300000042, 433215.7420000024], [163285.28200000152, 433216.1270000003], [163281.7020000033, 433216.0620000027], [163278.9590000026, 433216.2809000015], [163277.60400000215, 433216.5930000022], [163262.79700000212, 433218.0990000032], [163259.74700000137, 433218.3920000009], [163256.9370000027, 433218.6760000028], [163254.80100000277, 433218.69900000095], [163251.90900000185, 433218.9931000024], [163239.98100000247, 433220.2419000007], [163230.97000000253, 433221.04900000244], [163212.22610000148, 433223.33999999985], [163202.85300000012, 433224.6469999999], [163183.6870000027, 433227.0480000004], [163167.6860000007, 433229.1090000011], [163154.58100000024, 433230.2520000003], [163144.5, 433231.5560000017], [163129.36400000006, 433233.16210000217], [163123.58100000024, 433233.55900000036], [163113.2490000017, 433234.5839000009], [163104.06400000304, 433235.4460000023], [163097.60300000012, 433236.33999999985], [163086.56000000238, 433238.64410000294], [163076.9759999998, 433240.9200000018], [163067.82410000265, 433243.05310000107], [163058.7020000033, 433245.29900000244], [163051.1540000029, 433247.9259000011], [163039.2589999996, 433251.17500000075], [163030.94200000167, 433253.3950000033], [163024.51700000092, 433255.37800000235], [163019.34600000083, 433255.9761000015], [163014.46700000018, 433255.7240000032], [163013.01800000295, 433255.56390000135], [163005.19299999997, 433254.26310000196], [162998.04200000316, 433252.6950000003], [162991.66800000146, 433251.2650000006], [162979.1640000008, 433247.4270000011], [162965.5080000013, 433242.7501000017], [162954.95600000024, 433239.54300000146], [162936.54800000042, 433232.8120000027], [162923.52500000224, 433226.9109000005], [162911.76300000027, 433220.7010000013], [162901.14200000092, 433214.61900000274], [162889.63800000027, 433208.7120000012], [162884.2259999998, 433206.2420000024], [162875.49700000137, 433202.41310000047], [162868.28299999982, 433199.188000001], [162860.0770000033, 433196.2809000015], [162846.45700000226, 433191.25], [162832.21100000292, 433185.86089999974], [162814.444000002, 433179.4900000021], [162801.3740000017, 433174.9460000023], [162786.438000001, 433169.7280000001], [162772.63599999994, 433165.1240000017], [162764.37299999967, 433162.11900000274], [162754.5450000018, 433159.5599000007], [162747.41500000283, 433158.15900000185], [162740.99799999967, 433156.87900000066], [162735.9130000025, 433156.2719999999], [162730.8660000004, 433156.2449000031], [162724.86000000313, 433156.1570000015], [162717.77199999988, 433156.4161000028], [162710.5530000031, 433155.89510000125], [162705.67700000107, 433155.2880000025], [162700.0080000013, 433154.02800000086], [162695.7100000009, 433152.83999999985], [162689.3660000004, 433150.1950000003], [162684.6480000019, 433147.6020000018], [162677.4530000016, 433142.73110000044], [162668.37700000033, 433135.18300000206], [162663.2030000016, 433131.4621000029], [162659.74799999967, 433128.948900003], [162655.69800000265, 433126.4530000016], [162652.2410000004, 433124.44209999964], [162645.05900000036, 433120.9590000026], [162637.72200000286, 433118.8830000013], [162631.29200000316, 433117.4310000017], [162627.71600000188, 433116.21190000325], [162582.5140000023, 433113.39410000294], [162579.77100000158, 433112.97300000116], [162570.89300000295, 433112.563000001], [162561.58300000057, 433111.36089999974], [162556.0780000016, 433110.15100000054], [162550.1080000028, 433108.0391000025], [162546.32600000128, 433106.31599999964], [162539.41600000113, 433102.444000002], [162531.8430000022, 433099.1180000007], [162523.4040000029, 433096.9370000027], [162516.875, 433096.1550000012], [162511.78400000185, 433096.010900002], [162503.05000000075, 433096.2891000025], [162492.15200000256, 433097.1550000012], [162478.04300000146, 433098.2250000015], [162469.15700000152, 433098.44299999997], [162457.70600000024, 433099.79300000146], [162446.37200000137, 433099.28810000047], [162434.95600000024, 433098.54090000317], [162420.27000000328, 433096.5370000005], [162409.62490000203, 433094.07190000266], [162401.48800000176, 433091.56510000303], [162394.94800000265, 433089.6711000018], [162389.48699999973, 433087.66700000316], [162383.40200000256, 433085.2970000021], [162378.30600000173, 433083.1410000026], [162371.45700000226, 433080.3009000011], [162365.94900000095, 433077.49610000104], [162359.46100000292, 433074.3060000017], [162355.51099999994, 433072.48699999973], [162352.5290000029, 433071.257000003], [162340.86100000143, 433064.82400000095], [162332.95100000128, 433061.12000000104], [162325.49799999967, 433057.200000003], [162320.2794000022, 433054.39300000295], [162317.59310000017, 433052.94800000265], [162309.36900000274, 433048.6000000015], [162299.36400000006, 433043.4231000021], [162290.9680000022, 433038.8570000008], [162271.813000001, 433029.1790000014], [162254.72200000286, 433020.0170000009], [162234.17300000042, 433009.7020000033], [162225.72100000083, 433005.71400000155], [162211.79800000042, 432999.96990000084], [162199.50300000235, 432995.96609999985], [162193.37800000235, 432994.11900000274], [162184.28400000185, 432991.632000003], [162178.71400000155, 432990.2520000003], [162164.7640000023, 432986.8570000008], [162157.0789999999, 432984.94299999997], [162147.65900000185, 432982.700000003], [162137.73200000077, 432980.382000003], [162125.6160000004, 432977.5720000006], [162111.57100000232, 432974.49909999967], [162092.8200000003, 432969.6240000017], [162067.9299999997, 432963.450000003], [162057.12100000307, 432960.9200000018], [162044.64300000295, 432957.79900000244], [162032.85300000012, 432954.64190000296], [162018.44600000232, 432950.1160000004], [162003.2180000022, 432945.8120000027], [161986.89500000328, 432940.14400000125], [161971.3839999996, 432934.6710000001], [161953.56500000134, 432928.9120000005], [161939.90600000322, 432924.44200000167], [161927.69900000095, 432920.1560000032], [161918.0540000014, 432917.2820000015], [161907.91000000015, 432913.6180000007], [161901.7180000022, 432911.6640000008], [161897.0290000029, 432909.6620000005], [161888.55600000173, 432905.8560000025], [161878.84500000253, 432901.12100000307], [161874.38000000268, 432898.83100000024], [161861.01700000092, 432891.8200000003], [161851.27800000086, 432887.20710000023], [161843.99500000104, 432884.1550000012], [161834.5150000006, 432880.76000000164], [161829.00100000203, 432879.1599000022], [161820.10200000182, 432876.31400000304], [161809.59600000083, 432873.88599999994], [161793.29900000244, 432871.0791000016], [161787.5929000005, 432870.45600000024], [161778.2960000001, 432870.08000000194], [161775.3280000016, 432869.81500000134], [161755.61309999973, 432869.16899999976], [161750.5089999996, 432868.36400000006], [161736.16700000316, 432866.53400000185], [161725.57410000265, 432864.33000000194], [161717.1640000008, 432862.4060000032], [161709.71400000155, 432859.6209000014], [161700.34600000083, 432855.8549000025], [161687.27100000158, 432849.75410000235], [161669.8839999996, 432840.94800000265], [161654.69900000095, 432832.59700000286], [161645.632000003, 432828.0990000032], [161640.3289999999, 432825.813000001], [161634.25100000203, 432823.45390000194], [161628.2420000024, 432821.4620000012], [161621.21700000018, 432819.1581000015], [161613.49400000274, 432816.9600000009], [161606.6160000004, 432815.0240000002], [161595.74400000274, 432812.3920000009], [161586.26800000295, 432810.0210000016], [161578.36000000313, 432808.22100000083], [161570.53200000152, 432806.3950000033], [161563.08200000226, 432804.6640000008], [161552.56599999964, 432802.2960000001], [161545.43900000304, 432800.7410000004], [161539.1240000017, 432799.59600000083], [161532.67300000042, 432798.28500000015], [161525.6000000015, 432797.1339999996], [161519.86000000313, 432796.1450000033], [161510.77600000054, 432794.6560000032], [161503.45100000128, 432793.47300000116], [161494.16200000048, 432792.132000003], [161483.89500000328, 432790.51099999994], [161475.62600000203, 432789.2520000003], [161466.1780000031, 432787.85400000215], [161460.15100000054, 432786.8670000024], [161456.36890000105, 432786.1720000021], [161441.27500000224, 432783.87900000066], [161432.76200000197, 432782.7741000019], [161426.17700000107, 432782.2710000016], [161418.93200000003, 432782.19099999964], [161415.62000000104, 432782.65300000086], [161413.0460000001, 432783.21990000084], [161407.31500000134, 432784.8680000007], [161401.80000000075, 432787.1220000014], [161396.0240000002, 432790.28400000185], [161392.36800000072, 432792.99600000307], [161389.0610000007, 432796.21400000155], [161385.58100000024, 432800.02700000256], [161382.83700000122, 432804.2039999999], [161378.76099999994, 432811.4350000024], [161375.61800000072, 432818.9471000023], [161372.06400000304, 432826.754900001], [161364.1000000015, 432843.83100000024], [161361.8990000002, 432848.2340000011], [161358.39100000262, 432853.8370000012], [161355.7330000028, 432857.4840000011], [161353.194000002, 432860.4520000033], [161349.09500000253, 432864.701100003], [161343.95700000226, 432868.8479000032], [161337.9530000016, 432872.9109000005], [161331.37000000104, 432876.04890000075], [161330.1480000019, 432876.56599999964], [161326.46300000325, 432877.8781000003], [161317.44099999964, 432880.06010000035], [161309.58200000226, 432880.94099999964], [161304.9530000016, 432880.9140000008], [161300.33999999985, 432880.6229000017], [161295.1000000015, 432879.79900000244], [161290.0460000001, 432878.4210000001], [161284.40900000185, 432876.57290000096], [161279.56000000238, 432874.5078999996], [161275.0380000025, 432872.0401000008], [161271.20500000194, 432869.4840000011], [161266.47700000182, 432865.9060000032], [161262.51700000092, 432862.438000001], [161256.51900000125, 432856.29509999976], [161249.01300000027, 432847.95500000194], [161240.23500000313, 432838.10400000215], [161231.61110000312, 432828.1060000025], [161222.93500000238, 432818.1590999998], [161214.2589999996, 432808.21300000325], [161207.3340000026, 432800.23699999973], [161200.40900000185, 432792.26099999994], [161193.4840000011, 432784.2860000022], [161186.55900000036, 432776.3100000024], [161174.7020000033, 432763.00290000066], [161168.72000000253, 432755.9770999998], [161166.4299999997, 432753.24500000104], [161163.86300000176, 432750.188000001], [161147.55000000075, 432736.3289999999], [161145.20600000024, 432734.9220000021], [161143.48699999973, 432733.9321000017], [161139.11000000313, 432732.31700000167], [161135.33300000057, 432731.17500000075], [161118.70100000128, 432729.0929000005], [161108.7730000019, 432728.1490000002], [161095.54399999976, 432726.7860000022], [161082.59800000116, 432725.36300000176], [161076.4450000003, 432724.5230999999], [161072.52600000054, 432723.6150000021], [161068.60600000247, 432722.70700000226], [161064.85500000045, 432721.38800000027], [161061.15100000054, 432719.9450000003], [161056.69200000167, 432717.5930000022], [161050.40200000256, 432713.75090000033], [161044.14600000158, 432708.5700000003], [161039.37600000203, 432703.06400000304], [161035.96600000188, 432698.31599999964], [161034.06400000304, 432694.43200000003], [161031.04710000008, 432687.07300000265], [161029.20800000057, 432680.075000003], [161026.04000000283, 432668.635900002], [161024.56000000238, 432664.7030000016], [161022.1339999996, 432659.692900002], [161020.4050000012, 432656.6640000008], [161018.75300000235, 432654.4270000011], [161016.2960000001, 432651.1469999999], [161013.27500000224, 432648.1150000021], [161009.438000001, 432645.04090000317], [161004.31599999964, 432641.41810000315], [160987.19099999964, 432630.6328999996], [160975.6550000012, 432622.7779000029], [160963.37700000033, 432613.5860000029], [160950.8340000026, 432603.5710000023], [160937.40600000322, 432592.4409000017], [160930.7420000024, 432587.33800000325], [160923.67700000107, 432582.813000001], [160919.91100000218, 432580.7700000033], [160916.23699999973, 432578.88700000197], [160910.83000000194, 432576.8990000002], [160905.62100000307, 432575.4680000022], [160900.25200000033, 432574.3650000021], [160893.54300000146, 432573.8060000017], [160888.17700000107, 432573.91800000146], [160883.5549999997, 432574.29000000283], [160878.74700000137, 432574.9610000029], [160869.28700000048, 432577.30790000036], [160865.3670000024, 432578.7890000008], [160860.319000002, 432581.1450000033], [160855.39400000125, 432583.7911000028], [160850.63000000268, 432586.694000002], [160845.52500000224, 432590.3960000016], [160838.90200000256, 432595.4690000005], [160832.5599000007, 432600.91600000113], [160819.98600000143, 432612.0170000009], [160809.4520000033, 432621.0720000006], [160805.15799999982, 432625.11290000007], [160787.73600000143, 432647.9620000012], [160786.3120000027, 432649.6640000008], [160783.8830000013, 432653.0240000002], [160780.20600000024, 432657.6191000007], [160772.97300000116, 432666.689100001], [160769.90200000256, 432670.74400000274], [160765.5380000025, 432676.2649000026], [160753.10400000215, 432692.1731000021], [160751.65700000152, 432694.27700000256], [160748.95100000128, 432697.7420000024], [160743.29100000113, 432704.49500000104], [160740.66000000015, 432707.6799999997], [160736.64500000328, 432711.66789999977], [160731.76800000295, 432715.39510000125], [160727.8120000027, 432718.5720000006], [160723.26099999994, 432722.006000001], [160717.9990000017, 432725.4280000031], [160711.39699999988, 432729.5150000006], [160707.57500000298, 432731.98000000045], [160697.61300000176, 432735.88500000164], [160692.13599999994, 432737.5150000006], [160686.62000000104, 432739.007000003], [160679.90000000224, 432740.08800000325], [160676.72900000215, 432740.60890000314], [160672.0549999997, 432741.069000002], [160666.00300000235, 432741.46400000155], [160661.19700000063, 432741.5150000006], [160654.97200000286, 432740.99500000104], [160654.30000000075, 432740.9759000018], [160650.86900000274, 432740.6469999999], [160647.29100000113, 432740.3409000002], [160640.27800000086, 432738.6160000004], [160636.2090000026, 432737.4931000024], [160630.14400000125, 432735.5460000001], [160620.9290000014, 432731.5480000004], [160612.06799999997, 432727.54300000146], [160598.87100000307, 432721.2639000006], [160589.59100000188, 432716.2840999998], [160584.8110000007, 432713.45800000057], [160579.98200000077, 432710.701100003], [160573.51900000125, 432706.4750000015], [160567.52800000086, 432702.5850000009], [160559.97900000215, 432697.2248999998], [160553.27100000158, 432692.95490000024], [160543.04700000212, 432685.006000001], [160531.7399000004, 432676.1550000012], [160527.12299999967, 432672.71400000155], [160522.41500000283, 432669.4060000032], [160516.99300000072, 432665.84800000116], [160506.75200000033, 432659.3560000025], [160501.66800000146, 432656.3839999996], [160491.9200000018, 432651.71499999985], [160481.54000000283, 432646.74710000306], [160469.757000003, 432641.26900000125], [160457.21200000122, 432636.2270000018], [160444.4040000029, 432630.96389999986], [160430.50100000203, 432625.3200000003], [160415.6950000003, 432619.3340000026], [160400.45600000024, 432612.96499999985], [160384.56400000304, 432606.0320000015], [160364.62900000066, 432597.7660000026], [160345.23100000247, 432589.9130000025], [160336.14600000158, 432585.813000001], [160326.0929000005, 432581.50300000235], [160317.32300000265, 432577.94590000063], [160308.0610000007, 432574.2270000018], [160301.8110000007, 432571.55000000075], [160292.8110000007, 432567.7700000033], [160281.16700000316, 432562.6971000023], [160268.79900000244, 432557.93900000304], [160253.39600000158, 432551.9681000002], [160238.5240000002, 432546.39400000125], [160223.1000000015, 432540.9290000014], [160207.97900000215, 432535.5229000002], [160204.57500000298, 432534.3509000018], [160201.80600000173, 432533.2319000028], [160172.2100000009, 432521.3430000022], [160167.90100000054, 432519.23000000045], [160162.87299999967, 432517.31010000035], [160157.30800000206, 432514.8921000026], [160149.6540000029, 432511.4221000001], [160142.55900000036, 432508.6421000026], [160133.52199999988, 432504.58200000226], [160125.3110000007, 432500.57300000265], [160110.6780000031, 432494.11400000006], [160106.64600000158, 432491.9079999998], [160093.57600000128, 432485.6960000023], [160081.87700000033, 432479.69800000265], [160069.9140000008, 432473.36100000143], [160052.31500000134, 432464.32400000095], [160039.68300000206, 432457.29000000283], [160027.0540000014, 432450.19590000063], [160015.65799999982, 432444.0300000012], [160013.7259999998, 432442.8281000033], [160005.1170000024, 432437.8210000023], [159994.382000003, 432432.1300000027], [159991.632000003, 432430.8049999997], [159977.23600000143, 432422.8049999997], [159961.4920000024, 432414.49400000274], [159948.82500000298, 432407.69099999964], [159935.44600000232, 432400.188000001], [159923.0930000022, 432392.6839000024], [159913.01900000125, 432387.22200000286], [159903.22000000253, 432381.317900002], [159900.12090000138, 432379.1341000013], [159895.8200000003, 432375.91000000015], [159892.03590000048, 432372.1149000004], [159888.15000000224, 432368.51000000164], [159884.76600000262, 432364.3910000026], [159878.45600000024, 432355.82300000265], [159869.06400000304, 432340.1240000017], [159863.88800000027, 432332.59600000083], [159862.24300000072, 432330.02800000086], [159860.569000002, 432327.74909999967], [159856.5700000003, 432322.86290000007], [159853.52600000054, 432319.4610000029], [159847.51900000125, 432313.625], [159839.507000003, 432306.6090000011], [159837.27800000086, 432304.4900000021], [159831.63100000098, 432300.3931000009], [159826.73100000247, 432297.38510000333], [159821.40100000054, 432294.3660000004], [159812.37000000104, 432288.5871000029], [159809.9830000028, 432285.9200000018], [159805.25500000268, 432282.18300000206], [159799.46300000325, 432277.9740000032], [159791.94800000265, 432272.4280000031], [159785.84700000286, 432268.3430000022], [159775.11900000274, 432260.3740000017], [159763.62800000235, 432252.5940000005], [159753.29200000316, 432245.13599999994], [159742.632000003, 432238.1480999999], [159734.75100000203, 432233.66500000283], [159729.0240000002, 432230.569000002], [159715.4299999997, 432223.31500000134], [159708.36900000274, 432219.8110000007], [159701.1799999997, 432216.5769000016], [159691.52100000158, 432212.751000002], [159681.79399999976, 432209.1041000001], [159669.04399999976, 432205.0600000024], [159662.632000003, 432203.2280000001], [159659.8030000031, 432202.3461000025], [159652.93300000206, 432200.72410000116], [159646.09500000253, 432198.9690000005], [159637.35600000247, 432196.9519000016], [159631.64100000262, 432195.61400000006], [159615.59800000116, 432192.39300000295], [159608.36900000274, 432190.73800000176], [159594.51200000197, 432188.076100003], [159580.7039999999, 432185.17500000075], [159570.06599999964, 432183.02810000256], [159559.60200000182, 432180.9039000012], [159545.02199999988, 432177.9230000004], [159537.06000000238, 432175.9930000007], [159531.98699999973, 432175.03990000114], [159526.27500000224, 432174.1770000011], [159522.0549999997, 432173.2740000002], [159519.43200000003, 432172.9120000005], [159505.45600000024, 432168.4539999999], [159495.30000000075, 432164.1020000018], [159488.30200000107, 432160.0050000027], [159480.81700000167, 432153.53510000184], [159476.9280000031, 432149.39400000125], [159473.76700000092, 432144.58000000194], [159470.34200000018, 432139.8869000003], [159466.0789999999, 432134.00400000066], [159463.76099999994, 432126.9470000006], [159462.47410000116, 432123.7090000026], [159458.36400000006, 432114.7250000015], [159453.0380000025, 432105.10990000144], [159446.3430000022, 432090.9968999997], [159441.85600000247, 432079.57400000095], [159438.48500000313, 432069.29900000244], [159434.11410000175, 432059.5600000024], [159429.04700000212, 432047.4130000025], [159423.3650000021, 432035.1410000026], [159418.53400000185, 432026.88700000197], [159411.4200000018, 432014.35500000045], [159404.2180000022, 432002.48900000006], [159400.35400000215, 431997.03390000015], [159397.6799999997, 431993.41810000315], [159391.36800000072, 431985.13010000065], [159385.125, 431977.7250000015], [159376.75400000066, 431968.2250000015], [159360.87900000066, 431950.9649000019], [159345.0080000013, 431933.6950000003], [159325.51300000027, 431912.67500000075], [159306.09800000116, 431891.5829000026], [159297.9290000014, 431882.9219000004], [159286.5289000012, 431870.64510000125], [159278.18200000003, 431861.65210000053], [159271.62900000066, 431854.5200000033], [159263.4539999999, 431845.8720000014], [159256.36800000072, 431838.2191000022], [159250.00400000066, 431831.4200000018], [159243.83300000057, 431824.069000002], [159229.71600000188, 431812.1770000011], [159228.6799999997, 431811.001000002], [159225.21499999985, 431807.4050000012], [159222.00100000203, 431804.751000002], [159210.87000000104, 431792.6020000018], [159209.33000000194, 431791.3340000026], [159207.20100000128, 431789.4990000017], [159203.7890000008, 431786.8751000017], [159198.85400000215, 431782.4711000025], [159193.94600000232, 431778.0610000007], [159185.32600000128, 431770.1009000018], [159176.73000000045, 431762.04890000075], [159167.6550000012, 431753.442900002], [159158.45000000298, 431744.97000000253], [159143.60600000247, 431730.6850000024], [159128.6950000003, 431716.47000000253], [159114.68300000206, 431703.4509000033], [159102.30200000107, 431691.91910000145], [159089.84800000116, 431680.4660000019], [159081.06799999997, 431672.5240000002], [159079.2740000002, 431671.01000000164], [159077.34500000253, 431669.6379000023], [159075.80600000173, 431668.2580000013], [159068.80100000277, 431661.97900000215], [159067.6080000028, 431660.8770000003], [159064.5240000002, 431657.86100000143], [159061.61800000072, 431655.258100003], [159057.92200000212, 431651.73000000045], [159045.5450000018, 431640.23500000313], [159033.33300000057, 431628.53500000015], [159022.02010000125, 431617.46400000155], [159012.40600000322, 431607.68200000003], [158998.4200000018, 431593.2340000011], [158991.51099999994, 431585.88599999994], [158980.62100000307, 431574.4199000001], [158974.3110000007, 431567.72900000215], [158972.51099999994, 431565.49500000104], [158957.65100000054, 431550.33999999985], [158941.3890000023, 431534.4780000001], [158924.8980000019, 431518.3501000032], [158918.26600000262, 431512.26099999994], [158913.38800000027, 431507.7670000009], [158907.15310000256, 431502.25400000066], [158895.98699999973, 431491.9370000027], [158890.18200000003, 431486.09700000286], [158886.1550000012, 431482.4230000004], [158877.18900000304, 431473.8060000017], [158874.43500000238, 431470.69099999964], [158869.57100000232, 431465.9070000015], [158863.23000000045, 431459.23699999973], [158857.0450000018, 431452.83300000057], [158841.92200000212, 431436.7030000016], [158835.98200000077, 431431.11000000313], [158834.85200000182, 431430.28400000185], [158832.8580000028, 431428.3260000013], [158823.42200000212, 431420.3740000017], [158808.66600000113, 431408.8570000008], [158802.3830000013, 431404.4840000011], [158796.56700000167, 431400.76800000295], [158789.65200000256, 431396.2711000033], [158786.05000000075, 431394.1630000025], [158779.00600000098, 431389.8431000002], [158774.1330000013, 431387.0530000031], [158760.0290000029, 431379.8030000031], [158741.0380000025, 431371.5329999998], [158731.4450000003, 431367.5689000003], [158723.59800000116, 431364.94209999964], [158697.29399999976, 431356.36199999973], [158690.73200000077, 431354.2310000025], [158674.44800000265, 431349.5020000003], [158666.76270000264, 431346.87270000204], [158649.42500000075, 431340.94099999964], [158642.58790000156, 431338.6741000004], [158634.95000000298, 431336.6180000007], [158628.81799999997, 431334.54310000315], [158624.6630000025, 431333.3591000028], [158610.4840000011, 431328.2719999999], [158603.17300000042, 431325.2980000004], [158597.77390000224, 431323.2479000017], [158592.74400000274, 431320.4590000026], [158588.35700000077, 431317.96389999986], [158583.61300000176, 431314.73699999973], [158578.65700000152, 431310.5480000004], [158575.02600000054, 431307.08200000226], [158569.6710000001, 431301.256000001], [158567.80710000172, 431299.075000003], [158563.8280000016, 431293.0789999999], [158561.2960000001, 431288.7441000007], [158558.5840000026, 431283.6700000018], [158555.3890000023, 431274.8740000017], [158554.2991000004, 431271.4649000019], [158551.9750000015, 431263.05900000036], [158547.2890000008, 431248.13599999994], [158544.81599999964, 431239.1551000029], [158542.58999999985, 431230.063000001], [158541.54790000245, 431225.15110000223], [158539.88100000098, 431216.6579999998], [158539.09500000253, 431205.9110000022], [158538.96600000188, 431202.35710000247], [158539.62299999967, 431193.00989999995], [158542.84500000253, 431165.2120000012], [158543.54900000244, 431147.2689000033], [158544.17500000075, 431135.58300000057], [158543.83100000024, 431129.21400000155], [158543.29800000042, 431120.45700000226], [158542.56500000134, 431112.1339999996], [158540.60500000045, 431099.0710000023], [158539.0390000008, 431087.5170000009], [158536.69000000134, 431078.2589999996], [158534.81400000304, 431070.5721000023], [158532.257000003, 431060.47200000286], [158531.2250000015, 431056.93200000003], [158529.7640000023, 431051.70010000095], [158529.02100000158, 431049.59500000253], [158529.05700000003, 431040.2700000033], [158529.52600000054, 431034.6610000022], [158529.65900000185, 431033.9200000018], [158533.38170000166, 431028.26630000025], [158540.1950000003, 431017.9189000018], [158546.62299999967, 431013.6270000003], [158553.84600000083, 431007.44200000167], [158562.17500000075, 431001.03500000015], [158566.84100000188, 430997.6960000023], [158571.25500000268, 430994.132000003], [158581.50100000203, 430987.15000000224], [158590.90100000054, 430980.626000002], [158594.80700000003, 430977.85990000144], [158598.65100000054, 430975.0560000017], [158600.99590000138, 430973.3890000023], [158608.01900000125, 430968.4660000019], [158619.70600000024, 430960.1799999997], [158625.13800000027, 430956.3010000028], [158631.41100000218, 430951.95810000226], [158638.44800000265, 430947.0200000033], [158643.10200000182, 430943.7100000009], [158658.6790000014, 430932.6790000014], [158674.14600000158, 430921.8530000001], [158686.68400000036, 430912.751000002], [158695.0, 430906.2810000032], [158701.4210000001, 430900.58300000057], [158705.40790000185, 430896.3671000004], [158709.04399999976, 430891.91500000283], [158713.9680000022, 430884.71400000155], [158716.37600000203, 430880.61400000006], [158719.65100000054, 430873.7380999997], [158720.8049999997, 430871.1091000028], [158724.4450000003, 430861.37100000307], [158725.882000003, 430854.8541000001], [158727.12110000104, 430847.31400000304], [158727.44900000095, 430838.8040000014], [158727.13700000197, 430830.2330000028], [158725.96600000188, 430821.7009000033], [158724.87100000307, 430817.09390000254], [158724.2250000015, 430814.317900002], [158722.68300000206, 430808.942900002], [158720.2259999998, 430802.58300000057], [158717.40799999982, 430797.6180000007], [158714.53500000015, 430792.7240000032], [158705.57300000265, 430779.36000000313], [158697.98699999973, 430767.94200000167], [158690.40190000087, 430756.5241000019], [158682.81599999964, 430745.1060000025], [158675.23010000214, 430733.6881000027], [158671.49799999967, 430728.2160000019], [158669.19200000167, 430725.18900000304], [158665.36300000176, 430719.74500000104], [158654.43710000068, 430702.57400000095], [158654.0540000014, 430701.3030000031], [158652.5080000013, 430699.1390000023], [158649.33700000122, 430694.48210000247], [158645.54900000244, 430689.1490000002], [158637.8440000005, 430677.1710000001], [158630.15900000185, 430665.7120000012], [158622.55800000206, 430654.2020000033], [158616.60400000215, 430645.3969000019], [158608.36100000143, 430632.7389000021], [158600.2740000002, 430620.5011], [158592.1860000007, 430608.26200000197], [158582.34590000287, 430593.4510000013], [158572.50500000268, 430578.6400000006], [158562.6640000008, 430563.82890000194], [158552.82400000095, 430549.01800000295], [158543.91100000218, 430535.7240000032], [158536.4001000002, 430524.4120000005], [158530.12000000104, 430515.0731000006], [158523.8030000031, 430505.3340000026], [158510.9690000005, 430486.1070000008], [158507.438000001, 430480.9851000011], [158503.73000000045, 430475.95600000024], [158498.38800000027, 430469.5930000022], [158495.8430000022, 430466.826100003], [158494.81400000304, 430465.90300000086], [158492.75600000098, 430464.19900000095], [158487.0230000019, 430459.61900000274], [158483.52600000054, 430457.2960000001], [158477.43900000304, 430453.6721000001], [158468.49799999967, 430449.45700000226], [158454.81400000304, 430445.26590000093], [158441.2190000005, 430441.4759000018], [158429.0300000012, 430438.69800000265], [158417.77500000224, 430436.06610000134], [158402.55800000206, 430432.814100001], [158387.34090000018, 430429.5609000027], [158370.16899999976, 430426.2169000022], [158354.20100000128, 430422.97300000116], [158345.46700000018, 430421.34500000253], [158335.14100000262, 430418.8049999997], [158323.96400000155, 430415.1630000025], [158307.49400000274, 430409.2110000029], [158303.97900000215, 430407.95800000057], [158300.625, 430406.4140000008], [158296.382000003, 430404.49600000307], [158291.99700000137, 430403.02600000054], [158278.77000000328, 430397.3680000007], [158274.125, 430396.04900000244], [158270.91500000283, 430395.1369000003], [158265.8590000011, 430393.5860000029], [158260.60300000012, 430391.98390000314], [158254.0951000005, 430390.18200000003], [158248.66899999976, 430388.7980000004], [158245.53500000015, 430387.97900000215], [158243.23100000247, 430387.1720000021], [158239.91870000213, 430386.31330000237], [158230.43200000003, 430383.85400000215], [158224.93100000173, 430382.01910000294], [158221.10500000045, 430380.74290000275], [158214.97000000253, 430378.381000001], [158206.69299999997, 430374.8441000022], [158199.4899000004, 430371.6090000011], [158191.30100000277, 430366.93900000304], [158183.11100000143, 430362.26900000125], [158174.26900000125, 430356.41899999976], [158165.42600000277, 430350.569000002], [158161.66600000113, 430347.7449000031], [158149.35700000077, 430337.6710000001], [158137.04800000042, 430327.59800000116], [158131.66500000283, 430323.01900000125], [158115.22100000083, 430307.8121000007], [158104.5620000027, 430298.5219999999], [158095.9520000033, 430290.48900000006], [158088.4539999999, 430282.98900000006], [158080.95500000194, 430275.4889000021], [158071.62800000235, 430265.82410000265], [158064.60500000045, 430258.52600000054], [158061.37700000033, 430254.7021000013], [158058.00300000235, 430251.0480000004], [158053.89600000158, 430245.7831000015], [158049.8030000031, 430240.502100002], [158047.11000000313, 430236.9829000011], [158044.0610000007, 430232.3309000023], [158042.30600000173, 430229.56500000134], [158037.9360000007, 430222.6229999997], [158036.7890000008, 430218.55900000036], [158035.05090000108, 430214.8060000017], [158032.188000001, 430207.44299999997], [158030.05100000277, 430202.5480000004], [158028.0380000025, 430197.2160000019], [158026.5530000031, 430191.9780000001], [158023.87000000104, 430184.48900000006], [158020.93300000206, 430176.18900000304], [158019.3280000016, 430172.08200000226], [158015.4301000014, 430163.2420000024], [158012.819000002, 430156.2149000019], [158007.1009999998, 430144.82400000095], [158003.9050000012, 430138.7741000019], [158000.02700000256, 430132.0700000003], [157996.444000002, 430126.12110000104], [157993.56599999964, 430121.43200000003], [157990.47200000286, 430116.7960000001], [157986.92200000212, 430113.02610000223], [157979.69700000063, 430103.47300000116], [157979.1550000012, 430102.6330000013], [157977.93900000304, 430101.12490000203], [157972.2490000017, 430094.5930000022], [157967.09800000116, 430087.61000000313], [157961.5150000006, 430080.96400000155], [157958.02500000224, 430076.44900000095], [157952.3040000014, 430070.1009999998], [157949.5460000001, 430066.8350000009], [157946.97700000182, 430063.41800000146], [157945.79200000316, 430061.5050000027], [157945.38500000164, 430061.26800000295], [157938.36800000072, 430053.84800000116], [157935.3270000033, 430050.5129000023], [157930.59200000018, 430045.17009999976], [157917.40300000086, 430027.56599999964], [157916.31799999997, 430026.2911000028], [157914.60200000182, 430024.20700000226], [157909.92110000178, 430016.450000003], [157907.0240000002, 430011.51200000197], [157903.79000000283, 430006.0979000032], [157900.87600000203, 430000.51000000164], [157898.5380000025, 429995.91010000184], [157896.33700000122, 429991.2430000007], [157892.13000000268, 429981.82510000095], [157888.5150000006, 429972.1661000028], [157888.25497219223, 429971.36531610304]]}, "properties": {"objectid": 1, "gemeente": "West Maas en Waal", "SHAPE__Length": 12709.38181915362}}]}